 2022  1 1  6 2 55.0 L   6.835 -73.176144.6  SGC  5 0.1 1.6 SGC                1
 Action:ARG 23-01-27 11:28 OP:anls STATUS:               ID:20220101060255     I
 ARC                 2022 0101 0600 55   800                                   6
 STAT SP IPHASW D HRMM SECON CODA AMPLIT PERI AZIMU VELO AIN AR TRES W  DIS CAZ7
 BAR2 HN  S   1    6 329.997                             169    0.17   26.9 181 
 RUS  HZ  P   1    6 318.900                             142   -0.04    104 174 
 RUS  HN  S   1    6 337.652                             142    0.03    104 174 
 PAM  EE  S   1    6 334.122                             151   -0.13   76.7  43 
 PAM  EZ  P   1    6 317.154                             151    0.10   76.7  43 
 PTB  HZ  P   1    6 321.580                             132   -0.07    145 257 
 PTB  HN  S   1    6 342.445                             132    0.02    145 257 
 CHI  HZ  P   1    6 333.420                             117    0.45    251 194 
 CHI  HE  S   1    6 4 2.298                             117   -0.28    251 194 
 BAR2 HZ  P   1    6 314.699                             169    0.13   26.9 181 
                                                                                

