 2022  1 1  921 30.1 L   1.869 -75.980 16.0  SGC  7 0.6 1.1 SGC                1
 Action:ARG 23-01-27 11:28 OP:anls STATUS:               ID:20220101092130     I
 ARC                 2022 0101 0919 30   800                                   6
 STAT SP IPHASW D HRMM SECON CODA AMPLIT PERI AZIMU VELO AIN AR TRES W  DIS CAZ7
 FLO2 HN  S   1    92145.468                              98   -0.29   48.3 131 
 FLO2 HZ  P   1    92138.842                              98   -0.07   48.3 131 
 GARC HE  S   1    92150.586                              91   -0.14   64.6  56 
 GARC HZ  P   1    92141.821                              91    0.11   64.6  56 
 COBO HN  S        92151.370                              90   -0.79   68.8 317 
 COBO HZ  P   1    92143.173                              90    0.66   68.8 317 
 SOTO HZ  P   1    92143.815                              87    0.10   75.7 292 
 SOTO HE  S   1    92153.815                              86   -0.48   75.7 292 
 MARO HZ  P   1    92148.422                              79   -0.10    108   1 
 MARO HN  S        922 1.786                              79   -1.05    108   1 
 BELO HN  S        922 8.852                              76   -0.81    132   8 
 BBAC HN  S        92210.113                              75   -2.86    141 276 
 BBAC HZ  P   1    92154.417                              75    0.21    141 276 
 BELO HZ  P        92154.214                              76    1.86    132   8 
                                                                                

