 2022  1 1  9 8 36.7 L   1.860 -75.976 27.6  SGC 33 0.9 2.8 SGC                1
 Action:ARG 23-01-27 11:28 OP:anls STATUS:               ID:20220101090836     I
 ARC                 2022 0101 0906 36   800                                   6
 STAT SP IPHASW D HRMM SECON CODA AMPLIT PERI AZIMU VELO AIN AR TRES W  DIS CAZ7
 FLO2 HZ  P   1    9 845.832                             111    0.02   47.3 130 
 FLO2 HN  S   1    9 851.634                             111   -1.26   47.3 130 
 GARC HZ  P   1    9 848.783                             103    0.19   64.8  55 
 GARC HN  S   1    9 857.460                             103   -0.37   64.8  55 
 COBO HZ  P   1    9 849.875                             102    0.37   69.8 318 
 COBO HN  S   1    9 859.017                             102   -0.44   69.8 318 
 SOTO HZ  P   1    9 850.847                             100    0.25   76.5 293 
 SOTO HN  S   1    9 9 0.439                             100   -0.95   76.5 293 
 MARO HZ  P   1    9 855.295                              96    0.03    109   1 
 MARO HN  S   1    9 9 8.626                              96   -1.07    109   1 
 CRU  HZ  P   1    9 856.094                              95   -0.17    113 253 
 CRU  HN  S        9 910.121                              95   -1.37    113 253 
 BET  EZ  P   1    9 856.207                              94    0.18    114  32 
 BET  EN  S        9 9 9.688                              94   -1.39    114  32 
 BELO HZ  P   1    9 858.921                              94   -0.09    133   8 
 BELO HN  S        9 914.920                              94   -1.45    133   8 
 BBAC HZ  P   1    9 9 0.541                              94   -0.23    142 277 
 BBAC HN  S        9 917.801                              94   -1.70    142 277 
 PLNC EZ  P   1    9 9 2.149                              93    0.12    152  14 
 PLNC E?  S        9 921.176                              93   -0.56    152  14 
 CUFI HZ  P   1    9 9 4.763                              93   -0.20    167 245 
 CUFI HN  S        9 924.619                              93   -2.35    167 245 
 JAMC HZ  P   1    9 9 4.779                              94   -0.06    169 332 
 JAMC HN  S        9 925.580                              94   -1.17    169 332 
 RAC2CHZ  P   1    9 9 6.600                              90    0.52    178 340 
 CUM  EZ  P        9 914.457                              54    0.33    229 243 
 CUM  EN  S        9 942.379                              58   -1.32    229 243 
 URMC HZ  P        9 912.403                              55   -1.04    235  49 
 URMC HN  S        9 940.702                              58   -1.55    235  49 
 TULM HZ  P        9 915.616                              54    0.45    238 237 
 TULM HN  S        9 943.227                              56   -2.35    238 237 
 MACC HZ  P   1    9 912.687                              58   -0.63    238  82 
 MACC HE  S        9 939.665                              60   -2.53    238  82 
 PRA  HZ  P        9 912.388                              54   -2.01    239  30 
 PRA  HN  S        9 940.742                              56   -3.30    239  30 
 CASC HZ  P        9 911.944                                            243 218 
 CASC HN  S        9 944.336                                            243 218 
 CLEJAHZ  P        9 919.485                              54   -0.02    284  49 
 CLEJAHN  S        9 954.246                              56    0.93    284  49 
 OTAV BZ  P        9 926.663                              54    0.54    329 236 
 OTAV B1  S        910 6.380                              55    0.97    329 236 
 ACH1 HZ  P        9 928.774                                            345  47 
 ACH1 HN  S        910 5.588                                            345  47 
 PIRM HZ  P        9 928.367                              53   -0.06    347  12 
 VIL  EZ  P        9 928.866                              53    0.48    356  45 
 CVER HZ  P        9 929.582                              53   -0.73    363  35 
 ROSC BZ  P        9 932.333                              53   -0.19    379  29 
 GUA  EZ  P        9 934.066                              57    3.69    379  78 
 CHI  HZ  P        9 933.830                              53   -0.04    395  38 
 PIAT HZ  P        9 932.248                              55   -3.03    405 218 
 NOR  HZ  P        9 938.258                              53    0.48    429  16 
 CBOC HZ  P        9 940.557                              54    0.71    445 359 
 PTB  HZ  P        9 951.220                              53   -0.66    547  18 
 RUS  HZ  P        9 952.313                              52   -1.05    551  35 
                                                                                

