 2022  1 1  252 28.1 L   5.817 -75.999 62.0  SGC  9 0.5 1.6 SGC                1
 Action:ARG 23-01-27 11:28 OP:anls STATUS:               ID:20220101025228     I
 ARC                 2022 0101 0250 28   800                                   6
 STAT SP IPHASW D HRMM SECON CODA AMPLIT PERI AZIMU VELO AIN AR TRES W  DIS CAZ7
 CBOC HZ  P   1    25236.515                             175   -0.51   5.40 344 
 CBOC HN  S   1    25243.982                             175    0.07   5.40 344 
 QUBC HZ  P   1    25239.612                             131   -0.27   58.1 262 
 QUBC HN  S   1    25249.486                             131    0.49   58.1 262 
 HEL  HZ  P   1    25240.732                             127   -0.32   66.4  52 
 HEL  HN  S   1    25251.478                             127    0.39   66.4  52 
 NOR  HZ  P   1    25246.534                             107   -0.98    128 103 
 NOR  HN  S   1    253 2.686                             107    0.10    128 103 
 PIRM HZ  P   1    25247.502                             107   -0.54    128 142 
 PIRM HN  S   1    253 3.405                             107   -0.12    128 142 
 PTB  HZ  P   1    25254.852                             100    0.22    188  65 
 PTB  HN  S   1    25316.813                             100    1.55    188  65 
 ORTC HZ  P   1    253 0.398                              98    1.11    227 158 
 ORTC HN  S   1    25325.898                              98    2.35    227 158 
 CHI  HZ  P   1    253 7.478                              96    1.08    283 118 
 RUS  HZ  P   1    25312.678                              95    1.37    323  89 
                                                                                

