 2022  1 1  321 32.4 L   6.785 -73.145145.0  SGC 10 0.4 1.6 SGC                1
 Action:ARG 23-01-27 11:28 OP:anls STATUS:               ID:20220101032132     I
 ARC                 2022 0101 0319 32   800                                   6
 STAT SP IPHASW D HRMM SECON CODA AMPLIT PERI AZIMU VELO AIN AR TRES W  DIS CAZ7
 PAM  EZ  P   1    32154.809                             150    0.15   78.7  39 
 PAM  EN  S   1    32211.846                             150   -0.14   78.7  39 
 RUS  HZ  P   1    32155.956                             144   -0.05   99.0 176 
 RUS  HN  S   1    32214.653                             144    0.27   99.0 176 
 PTB  HZ  P   1    32158.556                             132   -0.77    147 259 
 PTB  HN  S   1    32219.964                             132   -0.34    147 259 
 BAR2 HZ  P   1    32151.241                             171   -0.72   21.7 191 
 BAR2 HN  S   1    322 7.033                             171   -0.15   21.7 191 
 BRJC HZ  P   1    32153.453                             153    0.04   69.4 287 
 BRJC HN  S   1    32210.657                             153    0.90   69.4 287 
 YPLC HZ  P   1    322 2.235                             127    0.18    175 151 
 YPLC HE  S   1    32227.570                             127    2.44    175 151 
 ZAR  HZ  P   1    322 7.103                             122    2.18    204 292 
 ZAR  HN  S   1    32230.667                             122    0.43    204 292 
 CHI  HZ  P   1    322 9.868                             117   -0.08    247 195 
 CHI  HN  S   1    32240.514                             117    1.31    247 195 
 DRL03HZ  P   1    32214.163                             113   -0.06    290 353 
 DRL03HN  S   1    32247.464                             113    0.66    290 353 
 DRL02HE  S   1    32252.940                             110   -1.14    326 358 
 DRL02HZ  P   1    32217.759                             110   -0.55    326 358 
                                                                                

