 2022  1 1  137 43.5 L   6.401 -71.808 38.4  SGC  4 0.2 1.4 SGC                1
 Action:ARG 23-01-27 11:28 OP:anls STATUS:               ID:20220101013743     I
 ARC                 2022 0101 0135 43   800                                   6
 STAT SP IPHASW D HRMM SECON CODA AMPLIT PERI AZIMU VELO AIN AR TRES W  DIS CAZ7
 TAM  HZ  P   1    13749.458                             173   -0.08   4.20  25 
 TAM  HN  S   1    13754.229                             173    0.05   4.20  25 
 YPLC HZ  P        138 8.258                              95    5.59    127 210 
 YPLC HN  S        13826.748                              95    9.20    127 210 
 PAM  EZ  P   1    138 2.243                              94   -2.84    143 316 
 PAM  EN  S   1    13821.880                              94    0.04    143 316 
 RUS  HZ  P   1    138 6.834                              94    0.65    152 248 
 RUS  HN  S   1    13823.318                              94   -0.48    152 248 
                                                                                

