 2022  1 1  719 40.1 L   6.853 -73.300123.4  SGC 23 0.6 2.0 SGC                1
 Action:ARG 23-01-27 11:28 OP:anls STATUS:               ID:20220101071940     I
 ARC                 2022 0101 0717 40   800                                   6
 STAT SP IPHASW D HRMM SECON CODA AMPLIT PERI AZIMU VELO AIN AR TRES W  DIS CAZ7
 PDSC HN  S   1    720 9.708                             165   -0.09   30.2  59 
 PDSC HZ  P   1    71956.568                             165   -0.23   30.2  59 
 BAR2 HZ  P   1    71956.972                             165   -0.05   31.7 156 
 BAR2 HN  S   1    72010.448                             165    0.27   31.7 156 
 VNAZ HN  S   1    72010.358                             163    0.22   36.2  31 
 VNAZ HZ  P   1    71955.451                             163   -1.55   36.2  31 
 CBUISHZ  P   1    71956.887                             162   -0.17   37.6  32 
 CBUISHN  S   1    72010.501                             162    0.24   37.6  32 
 BRJC HE  S   1    72011.168                             156    0.19   50.9 285 
 BRJC HZ  P   1    71957.316                             156   -0.15   50.9 285 
 PAM  EZ  P   1    720 0.576                             143    0.37   85.4  51 
 PAM  EE  S   1    72016.296                             143    0.43   85.4  51 
 RUS  HE  S   1    72019.428                             136    0.29    108 167 
 RUS  HZ  P   1    720 1.799                             136   -0.25    108 167 
 PTB  HZ  P   1    720 2.286                             129   -1.28    132 255 
 PTB  HN  S   1    72019.784                             129   -2.06    132 255 
 SPBC HN  S   1    72027.156                             124    0.80    157 213 
 SPBC HZ  P   1    720 6.471                             124    0.36    157 213 
 TAM  HZ  P   1    720 7.906                             121    0.32    173 105 
 TAM  HE  S   1    72028.334                             121   -0.67    173 105 
 ZAR  HN  S   1    72031.505                             119    0.16    186 292 
 ZAR  HZ  P   1    720 8.801                             119   -0.10    186 292 
 YPLC HN  S   1    72033.155                             119    0.84    190 148 
 YPLC HZ  P   1    72010.014                             119    0.56    190 148 
 NOR  HZ  P   1    72013.733                             114    0.61    224 231 
 NOR  HN  S   1    72039.009                             114    0.16    224 231 
 CHI  HZ  P   1    72016.902                             112    0.51    250 191 
 CHI  HN  S   1    72044.276                             112   -0.39    250 191 
 HEL  HE  S   1    72045.400                             111   -0.51    257 253 
 HEL  HZ  P   1    72017.273                             111    0.18    257 253 
 DRL03HZ  P   1    72019.532                             109    0.11    281 356 
 DRL03HN  S   1    72051.875                             109    1.81    281 356 
 PIRM HN  S   1    72058.404                             107    1.78    307 226 
 PIRM HZ  P   1    72025.241                             107    2.13    307 226 
 VIL  EZ  P   1    72022.976                             107    0.56    306 188 
 VIL  EN  S   1    72056.585                             107    1.19    306 188 
 CBOC HN  S   1    72058.073                             106   -0.12    319 250 
 CBOC HZ  P   1    72024.353                             106    0.36    319 250 
 DRL02HZ  P   1    72025.055                             106    1.33    318   1 
 DRL02HN  S   1    72058.349                             106    0.63    318   1 
 PTGC HN  S   1    72056.778                             106   -1.35    320 156 
 PTGC HZ  P   1    72023.499                             106   -0.45    320 156 
 URMC HZ  P   1    72037.081                             101    1.83    416 197 
 URMC HN  S   1    72119.286                             101    1.06    416 197 
 CRJC HN  S   1    72127.606                              99   -0.53    463   6 
 CRJC HZ  P   1    72041.103                              99    0.29    463   6 
                                                                                

