 2022  1 1  128  3.9 L   6.454 -73.753 43.1  SGC 11 0.6 1.3 SGC                1
 Action:ARG 23-01-27 11:28 OP:anls STATUS:               ID:20220101012803     I
 ARC                 2022 0101 0126 03   800                                   6
 STAT SP IPHASW D HRMM SECON CODA AMPLIT PERI AZIMU VELO AIN AR TRES W  DIS CAZ7
 PTB  HZ  P   1    12816.068                             100   -0.71   78.3 277 
 PTB  HN  S   1    12825.659                             100   -1.14   78.3 277 
 RUS  HZ  P   1    12819.478                              96   -0.02   96.8 130 
 RUS  HN  S   1    12830.761                              96   -0.88   96.8 130 
 BAR2 HZ  P   1    12815.008                             108   -0.42   65.0  76 
 BAR2 HN  S   1    12823.605                             108   -0.79   65.0  76 
 BRJC HZ  P   1    12814.450                             112    0.15   57.4   1 
 BRJC HN  S   1    12823.182                             112    0.79   57.4   1 
 SPBC HZ  P   1    12819.078                              95    0.15   95.6 202 
 SPBC HN  S   1    12830.996                              95    0.38   95.6 202 
 CBUCFHZ  P   1    12819.923                              95    0.21    101  48 
 CBUCFHN  S   1    12832.461                              95    0.44    101  48 
 PAM  EZ  P   1    12825.805                              92   -0.43    152  50 
 PAM  EN  S   1    12843.859                              92    0.21    152  50 
 NOR  HZ  P   1    12826.143                              92   -0.37    158 231 
 HEL  HZ  P   1    12831.816                              91    0.01    198 262 
 HEL  HN  S   1    12853.730                              91    0.18    198 262 
 PDSC HZ  P   1    12819.447                              95    0.36   96.7  52 
 PDSC HE  S   1    12830.041                              95   -0.88   96.7  52 
 PIRM HZ  P   1    12837.752                              90    0.55    241 225 
                                                                                

