 2022  1 1  559 52.6 L   6.687 -73.125130.1  SGC 19 0.8 1.9 SGC                1
 Action:ARG 23-01-27 11:28 OP:anls STATUS:               ID:20220101055952     I
 ARC                 2022 0101 0557 52   800                                   6
 STAT SP IPHASW D HRMM SECON CODA AMPLIT PERI AZIMU VELO AIN AR TRES W  DIS CAZ7
 BAR2 HN  S        6 026.136                             172    1.19   12.3 210 
 BAR2 HZ  P   1    6 010.833                             172    0.44   12.3 210 
 BRJC HZ  P   1    6 012.500                             146   -0.23   75.3 294 
 BRJC HN  S   1    6 028.876                             147   -0.29   75.3 294 
 PAM  EN  S        6 030.664                             143   -0.91   86.4  32 
 PAM  EZ  P   1    6 013.829                             143   -0.25   86.4  32 
 RUS  HZ  P   1    6 014.834                             143    0.21   88.4 176 
 RUS  HN  S        6 033.587                             143    1.02   88.4 176 
 YPLC HZ  P   1    6 021.325                             121   -0.02    165 150 
 YPLC HN  S        6 045.466                             121    0.77    165 150 
 CHI  HN  S        6 058.608                             111   -0.38    238 196 
 CHI  HZ  P   1    6 029.068                             111   -0.24    238 196 
 PDSC HN  S   1    6 025.696                             162    0.08   34.6  11 
 PDSC HZ  P   1    6 011.115                             162    0.35   34.6  11 
 CBUISHZ  P   1    6 011.134                             156   -0.16   50.5     
 CBUISHE  S   1    6 026.549                             156   -0.02   50.5     
 PTB  HN  S        6 038.284                             126   -1.41    147 263 
 PTB  HZ  P   1    6 017.903                             126   -0.68    147 263 
 TAM  HZ  P   1    6 019.166                             124   -0.48    149 100 
 TAM  HN  S        6 040.882                             124   -0.75    149 100 
 SPBC HE  S        6 042.210                             125    0.07    155 222 
 SPBC HZ  P   1    6 020.130                             124    0.19    155 222 
 ZAR  HZ  P        6 026.087                             116    1.05    210 295 
 ZAR  HN  S        6 048.431                             116   -2.92    210 295 
 NOR  HN  S        6 054.220                             113   -1.37    229 237 
 NOR  HZ  P   1    6 027.148                             113   -0.26    229 237 
 ROSC BZ  P   1    6 030.257                             111    0.24    243 212 
 ROSC BN  S        6 1 0.085                             111   -0.20    243 212 
 HEL  HE  S        6 1 3.713                             110   -0.55    271 258 
 HEL  HZ  P        6 034.732                             109    2.51    271 258 
 VIL  EZ  P        6 033.226                             106   -1.47    293 192 
 VIL  EN  S        6 1 8.675                             107   -0.11    293 192 
 PTGC HN  S        6 1 7.840                             106   -1.95    297 158 
 PTGC HZ  P        6 033.897                             106   -1.33    297 158 
 PIRM HZ  P        6 038.137                             106    0.46    310 230 
 PIRM HN  S        6 115.937                             106    1.87    310 230 
 URMC HE  S        6 131.454                             101   -0.75    406 200 
 URMC HZ  P        6 048.647                             101    0.97    406 200 
                                                                                

