 2022  1 1  725 33.9 L   6.669 -73.077129.3  SGC  9 0.6 1.8 SGC                1
 Action:ARG 23-01-27 11:28 OP:anls STATUS:               ID:20220101072533     I
 ARC                 2022 0101 0723 33   800                                   6
 STAT SP IPHASW D HRMM SECON CODA AMPLIT PERI AZIMU VELO AIN AR TRES W  DIS CAZ7
 BAR2 HN  S        726 7.702                             171    1.03   14.4 233 
 BAR2 HZ  P   1    72553.119                             171    0.95   14.4 233 
 PDSC HZ  P   1    72552.250                             161   -0.31   35.9   2 
 PDSC HN  S        726 6.695                             161   -0.67   35.9   2 
 CBUISHZ  P   1    72553.070                             154   -0.10   52.7 354 
 CBUISHE  S        726 8.501                             155    0.03   52.7 354 
 BRJC HN  S        72611.856                             144    0.30   81.0 294 
 BRJC HZ  P   1    72555.298                             144    0.42   81.0 294 
 PAM  EZ  P   1    72555.669                             143   -0.10   85.4  29 
 PAM  EN  S        72612.008                             144   -1.12   85.4  29 
 PTB  HN  S        72620.408                             125   -1.92    153 264 
 PTB  HZ  P   1    726 0.067                             125   -0.80    153 264 
 SPBC HZ  P   1    726 2.118                             123    0.17    157 224 
 SPBC HN  S        72624.026                             124   -0.25    157 224 
 CHI  HN  S        72640.570                             111   -0.12    238 197 
 CHI  HZ  P        72611.255                             111    0.18    238 197 
 PTGC HZ  P        72616.038                             106   -0.56    293 159 
 PTGC HE  S        72649.672                             106   -1.12    293 159 
                                                                                

