 2022  1 1  843 55.9 L   6.924 -73.125143.2  SGC  5 0.4 1.8 SGC                1
 Action:ARG 23-01-27 11:28 OP:anls STATUS:               ID:20220101084355     I
 ARC                 2022 0101 0841 55   800                                   6
 STAT SP IPHASW D HRMM SECON CODA AMPLIT PERI AZIMU VELO AIN AR TRES W  DIS CAZ7
 BAR2 HN  S   1    84430.665                             165    0.62   37.3 190 
 RUS  HN  S   1    84438.532                             140   -0.14    114 178 
 RUS  HZ  P   1    84418.942                             140   -0.60    114 178 
 PTB  HZ  P   1    84422.578                             130    0.31    153 254 
 PTB  HN  S   1    84443.322                             130   -0.21    153 254 
 CHI  HN  S   1    845 3.423                             115   -1.17    262 195 
 CHI  HZ  P   1    84434.073                             115   -0.03    262 195 
 PDSC HE  S   1    84428.558                             176   -0.15   10.1  42 
 PDSC HZ  P   1    84413.113                             176   -0.83   10.1  42 
 BAR2 HZ  P   1    84415.554                             165    0.86   37.3 190 
                                                                                

