 2022  1 1  645 10.8 L   6.336 -73.309113.7  SGC 23 0.8 1.9 SGC                1
 Action:ARG 23-01-27 11:28 OP:anls STATUS:               ID:20220101064510     I
 ARC                 2022 0101 0643 10   800                                   6
 STAT SP IPHASW D HRMM SECON CODA AMPLIT PERI AZIMU VELO AIN AR TRES W  DIS CAZ7
 RUS  HN  S   1    64544.283                             151    0.53   55.2 153 
 RUS  HZ  P   1    64529.124                             150    0.26   55.2 153 
 PAM  EZ  P   1    64534.268                             125   -0.19    130  31 
 PAM  EE  S        64552.935                             126   -0.87    130  31 
 PTB  HN  S        64551.795                             126   -0.44    128 280 
 PTB  HZ  P   1    64532.828                             125   -0.74    128 280 
 YPLC HZ  P   1    64535.935                             120   -0.40    146 135 
 YPLC HN  S        64556.040                             120   -1.19    146 135 
 CHI  HN  S        646 5.715                             112   -1.20    195 194 
 CHI  HZ  P   1    64541.683                             112   -0.06    195 194 
 HEL  HZ  P        64547.153                             108    0.55    245 266 
 HEL  HN  S        64614.348                             108   -1.35    245 266 
 PTGC HN  S        64618.226                             104   -2.95    270 151 
 PTGC HZ  P        64547.770                             104   -1.81    270 151 
 BAR2 HZ  P   1    64527.269                             161    0.23   31.8  26 
 BAR2 HN  S   1    64540.555                             161    0.08   31.8  26 
 PDSC HN  S   1    64544.141                             141   -0.79   77.8  20 
 PDSC HZ  P   1    64529.146                             141   -0.36   77.8  20 
 BRJC HZ  P   1    64530.076                             139    0.15   85.6 325 
 BRJC HN  S   1    64545.649                             139   -0.03   85.6 325 
 VNAZ HE  S   1    64546.312                             137   -0.23   90.9  12 
 VNAZ HZ  P   1    64531.238                             137    0.83   90.9  12 
 CBUISHZ  P        64532.069                             136    1.61   92.0  13 
 CBUISHE  S   1    64546.490                             137   -0.15   92.0  13 
 SPBC HN  S        64550.639                             130   -0.07    113 228 
 SPBC HZ  P   1    64532.956                             130    0.23    113 228 
 TAM  HZ  P        64537.247                             115   -1.25    168  86 
 TAM  HE  S        64558.156                             116   -3.00    168  86 
 NOR  HN  S        646 5.273                             113    0.53    192 243 
 NOR  HZ  P   1    64540.807                             113    0.29    192 243 
 ROSC BZ  P        64543.938                             111    1.58    200 214 
 ROSC BN  S        646 4.801                             112   -3.24    200 214 
 ZAR  HN  S        646 6.470                             111   -1.99    213 307 
 ZAR  HZ  P        64541.072                             111   -1.49    213 307 
 VIL  EZ  P        64548.048                             106    0.80    250 189 
 VIL  EN  S        64616.520                             106   -0.40    250 189 
 PIRM HN  S        64623.351                             105    0.71    270 233 
 PIRM HZ  P        64550.215                             105   -0.26    270 233 
 CBOC HZ  P        64553.488                             103   -0.31    303 260 
 CBOC HN  S        64626.092                             103   -2.59    303 260 
 DRL03HN  S        64631.480                             102   -3.40    340 356 
 DRL03HZ  P        64556.822                             101   -0.35    340 356 
 PRA  HZ  P        64556.992                             100   -0.90    340 210 
 PRA  HN  S        64634.423                             100   -1.64    340 210 
 URMC HN  S        64639.571                             100   -0.61    363 199 
 URMC HZ  P        646 0.719                             100    0.57    363 199 
                                                                                

