 2022  1 1  5 8 21.7 L   5.271 -73.689136.0  SGC 23 0.9 2.2 SGC                1
 Action:ARG 23-01-27 11:28 OP:anls STATUS:               ID:20220101050821     I
 ARC                 2022 0101 0506 21   800                                   6
 STAT SP IPHASW D HRMM SECON CODA AMPLIT PERI AZIMU VELO AIN AR TRES W  DIS CAZ7
 SPBC HZ  P   1    5 842.791                             153    0.36   59.9 315 
 SPBC HE  S   1    5 858.714                             153   -0.20   59.9 315 
 TABC EZ  P        5 844.471                             152    1.20   64.0 243 
 NOR  HZ  P   1    5 847.297                             131   -0.27    134 283 
 NOR  HN  S        5 9 6.922                             131   -1.21    134 283 
 ROSC BN  S        5 9 3.438                             145    0.84   84.6 235 
 ROSC BZ  P   1    5 845.318                             145    0.82   84.6 235 
 PTB  HZ  P   1    5 850.030                             125   -0.34    164 329 
 PTB  HN  S        5 911.655                             125   -1.56    164 329 
 RUS  HN  S        5 9 4.304                             141   -0.20   96.3  44 
 RUS  HZ  P   1    5 845.996                             141    0.46   96.3  44 
 CHI  HZ  P   1    5 843.741                             149    0.33   71.5 184 
 CHI  HN  S   1    5 9 0.424                             149   -0.19   71.5 184 
 CVER HN  S        5 9 2.602                             142   -0.94   93.7 207 
 CVER HZ  P   1    5 845.688                             142    0.67   93.7 207 
 BAR2 HZ  P   1    5 849.596                             125   -0.59    157  20 
 BAR2 HN  S        5 910.628                             125   -2.25    157  20 
 BRJC HE  S        5 917.512                             120   -0.41    189 358 
 BRJC HZ  P   1    5 852.908                             120   -0.07    189 358 
 PIRM HZ  P   1    5 852.248                             121   -0.87    181 256 
 PIRM HE  S        5 913.360                             122   -4.74    181 256 
 HEL  HE  S        5 923.235                             116   -2.19    227 296 
 HEL  HZ  P   1    5 857.330                             116    0.16    227 296 
 VIL  EZ  P   1    5 847.148                             131    0.10    128 180 
 VIL  EN  S        5 9 6.996                             132   -0.25    128 180 
 YPLC HE  S        5 910.484                             127   -0.68    145  84 
 YPLC HZ  P   1    5 849.666                             127    0.45    145  84 
 ORTC HZ  P        5 856.290                             114   -1.37    229 228 
 ORTC HN  S        5 923.044                             115   -3.27    229 228 
 PRA  HN  S        5 921.205                             116   -2.53    218 217 
 PRA  HZ  P   1    5 855.386                             116   -0.85    218 217 
 PAM  EZ  P        5 9 1.117                             112    0.51    254  25 
 PAM  EN  S        5 930.481                             112   -1.18    254  25 
 TAM  HE  S        5 927.044                             112   -3.35    246  58 
 TAM  HZ  P        5 9 0.180                             112    0.31    246  58 
 PTGC HZ  P   1    5 854.894                             116   -0.23    209 124 
 PTGC HN  S        5 920.030                             117   -1.81    209 124 
 URMC HN  S        5 926.073                             114   -0.90    237 198 
 URMC HZ  P   1    5 857.925                             114   -0.09    237 198 
 PGA6 HZ  P        5 9 5.199                             107   -0.73    309 122 
 PGA6 HN  S        5 938.670                             107   -2.69    309 122 
 MACC HE  S        5 945.084                             106   -4.31    347 182 
 MACC HZ  P        5 9 8.645                             105   -1.77    347 182 
 DRL03HZ  P        5 922.375                             101   -1.02    458   3 
 DRL03HN  S        510 9.517                             101   -3.38    458   3 
                                                                                

