 2022  1 1  552 16.7 L   6.798 -73.219142.3  SGC  3 0.1 1.7 SGC                1
 Action:ARG 23-01-27 11:28 OP:anls STATUS:               ID:20220101055216     I
 ARC                 2022 0101 0550 16   800                                   6
 STAT SP IPHASW D HRMM SECON CODA AMPLIT PERI AZIMU VELO AIN AR TRES W  DIS CAZ7
 BAR2 HN  S   1    55250.966                             170    0.03   23.2 170 
 BAR2 HZ  P   1    55226.211                             170   -9.75   23.2 170 
 RUS  HZ  P   1    55240.515                             143    0.30    101 171 
 RUS  HN  S   1    55258.310                             143   -0.20    101 171 
 PAM  EN  S   1    55256.261                             148    0.01   82.9  44 
 PAM  EZ  P   1    55238.924                             148   -0.03   82.9  44 
                                                                                

