 2022  1 1  7 4  8.2 L   5.273 -74.782  6.5  SGC  4 0.2 1.0 SGC                1
 Action:ARG 23-01-27 11:28 OP:anls STATUS:               ID:20220101070408     I
 ARC                 2022 0101 0702 08   800                                   6
 STAT SP IPHASW D HRMM SECON CODA AMPLIT PERI AZIMU VELO AIN AR TRES W  DIS CAZ7
 PIRM HE  S   1    7 429.289                              92    0.22   69.0 234 
 PIRM HZ  P   1    7 419.600                              92   -0.36   69.0 234 
 NOR  HZ  P   1    7 413.948                              95   -0.07   33.5 343 
 NOR  HN  S   1    7 418.841                              95    0.34   33.5 343 
 PRA  HE  S   1    7 456.065                              56    0.25    172 184 
 PRA  HZ  P   1    7 434.728                              56   -0.25    172 184 
 HEL  HZ  P   1    7 429.232                              91    0.11    130 321 
 HEL  HN  S   1    7 445.140                              91   -0.24    130 321 
                                                                                

