 2022  1 1  750  4.4 L   6.353 -73.601116.1  SGC  4 0.2 1.2 SGC                1
 Action:ARG 23-01-27 11:28 OP:anls STATUS:               ID:20220101075004     I
 ARC                 2022 0101 0748 04   800                                   6
 STAT SP IPHASW D HRMM SECON CODA AMPLIT PERI AZIMU VELO AIN AR TRES W  DIS CAZ7
 BAR2 HE  S   1    75034.705                             154    0.05   53.3  60 
 BAR2 HZ  P   1    75021.520                             154    0.11   53.3  60 
 RUS  HN  S   1    75037.758                             145   -0.05   76.7 132 
 RUS  HZ  P   1    75023.019                             145   -0.16   76.7 132 
 PTB  HZ  P   1    75024.050                             137   -0.07   96.9 282 
 PTB  HN  S   1    75039.490                             137    0.01   96.9 282 
 CHI  HN  S   1    75058.536                             117    1.86    191 185 
 CHI  HZ  P   1    75034.658                             117    0.87    191 185 
                                                                                

