 2022  1 1  645 51.9 L   6.702 -73.115130.6  SGC 20 0.8 2.0WSGC                1
 Action:ARG 23-01-27 11:28 OP:anls STATUS:               ID:20220101064551     I
 ARC                 2022 0101 0643 51   800                                   6
 STAT SP IPHASW D HRMM SECON CODA AMPLIT PERI AZIMU VELO AIN AR TRES W  DIS CAZ7
 BAR2 HN  S   1    64625.717                             171    0.72   14.3 211 
 BAR2 HZ  P   1    64610.907                             171    0.54   14.3 211 
 PDSC HZ  P   1    64610.636                             163   -0.00   32.7   9 
 PDSC HN  S   1    64625.351                             163   -0.13   32.7   9 
 VNAZ HE  S        64627.816                             157    1.36   48.2 357 
 VNAZ HZ  P   1    64611.216                             157    0.04   48.2 357 
 CBUISHE  S   1    64626.960                             156    0.55   48.9 359 
 CBUISHZ  P   1    64611.106                             156   -0.05   48.9 359 
 BRJC HZ  P   1    64612.622                             146   -0.07   75.7 293 
 BRJC HE  S   1    64629.570                             147    0.39   75.7 293 
 RUS  HE  S   1    64632.697                             142   -0.04   90.0 177 
 RUS  HZ  P   1    64614.777                             142    0.10   90.0 177 
 PAM  EZ  P   1    64613.639                             144   -0.23   84.4  32 
 PAM  EN  S        64630.325                             144   -0.96   84.4  32 
 PTB  HN  S        64638.226                             126   -1.66    149 263 
 PTB  HZ  P   1    64618.000                             126   -0.64    149 263 
 SPBC HZ  P   1    64620.000                             124   -0.06    157 222 
 SPBC HN  S        64641.538                             124   -0.91    157 222 
 TAM  HE  S        64640.441                             124   -0.99    149 101 
 TAM  HZ  P   1    64619.187                             124   -0.29    149 101 
 YPLC HZ  P   1    64621.175                             121   -0.17    166 150 
 YPLC HN  S        64645.044                             121    0.24    166 150 
 ZAR  HN  S        64649.805                             116   -1.55    211 294 
 ZAR  HZ  P   1    64625.759                             116    0.77    211 294 
 NOR  HZ  P        64630.209                             113    2.68    231 236 
 NOR  HN  S        64653.805                             113   -2.09    231 236 
 CHI  HN  S   1    64659.332                             111    0.03    240 196 
 CHI  HZ  P   1    64629.108                             111   -0.33    240 196 
 ROSC BZ  P        64631.110                             111    0.95    245 212 
 ROSC BN  S        647 1.460                             111    0.84    245 212 
 PTGC HN  S        647 7.656                             106   -2.28    298 158 
 PTGC HZ  P        64634.152                             106   -1.10    298 158 
 PIRM HZ  P        64638.876                             106    1.07    312 230 
 PIRM HN  S        64713.462                             106   -0.93    312 230 
 CBOC HN  S        64716.615                             105   -1.32    333 253 
 CBOC HZ  P        64640.757                             105    1.00    333 253 
 DRL02HZ  P        64637.486                             105   -1.87    337 357 
 DRL02HN  S        647 9.360                             105   -7.96    337 357 
 PRA  HE  S        64729.268                             102    0.71    385 210 
 PRA  HZ  P        64646.112                             102    0.48    385 210 
                                                                                

