 2022  1 1  8 3 17.3 L   6.754 -73.150134.0  SGC  7 0.4 1.6 SGC                1
 Action:ARG 23-01-27 11:28 OP:anls STATUS:               ID:20220101080317     I
 ARC                 2022 0101 0801 17   800                                   6
 STAT SP IPHASW D HRMM SECON CODA AMPLIT PERI AZIMU VELO AIN AR TRES W  DIS CAZ7
 BAR2 HN  S        8 351.252                             169    0.30   18.3 191 
 BAR2 HZ  P   1    8 336.298                             169    0.37   18.3 191 
 CBUISHZ  P   1    8 336.318                             159   -0.04   43.3   4 
 CBUISHE  S        8 351.913                             159    0.19   43.3   4 
 RUS  HN  S        8 359.272                             141    0.05   96.0 175 
 RUS  HZ  P   1    8 340.599                             141    0.07   96.0 175 
 PAM  EZ  P   1    8 339.288                             146    0.17   81.9  37 
 PAM  EN  S        8 356.302                             146   -0.37   81.9  37 
 PTB  HN  S        8 4 3.980                             128   -0.93    146 260 
 PTB  HZ  P   1    8 343.429                             127   -0.25    146 260 
 TAM  HZ  P   1    8 344.629                             124   -0.67    154 103 
 TAM  HN  S        8 4 6.731                             124   -1.13    154 103 
 ZAR  HN  S        8 414.992                             118   -0.64    205 293 
 ZAR  HZ  P        8 349.509                             118   -0.11    205 293 
                                                                                

