 2022  1 1 1138 43.1 L   6.109 -72.411 16.0  SGC 12 1.0 1.6 SGC                1
 Action:ARG 23-01-27 11:28 OP:anls STATUS:               ID:20220101113843     I
 ARC                 2022 0101 1136 43   800                                   6
 STAT SP IPHASW D HRMM SECON CODA AMPLIT PERI AZIMU VELO AIN AR TRES W  DIS CAZ7
 RUS  HE  S       1139 6.775                              84   -3.14   78.1 252 
 RUS  HZ  P   1   113857.665                              85   -0.50   78.1 252 
 BAR2 HZ  P   1   1139 1.340                              80    0.24    100 302 
 BAR2 HN  S       113913.153                              80   -1.98    100 302 
 YPLC HZ  P   1   113858.162                              85   -0.00   79.2 177 
 YPLC HE  S   1   1139 9.478                              85   -0.43   79.2 177 
 BRJC HE  S       113934.875                              76   -0.59    175 303 
 BRJC HZ  P   1   113913.404                              76    0.88    175 303 
 TAM  HE  S       1139 6.916                              87   -2.00   77.4  62 
 TAM  HZ  P   1   113857.923                              87    0.31   77.4  62 
 PAM  EZ  P   1   1139 7.416                              78    0.22    140 346 
 PAM  EE  S       113924.283                              78   -1.72    140 346 
 PTB  HZ  P       113921.662                              50    1.68    230 281 
 PTB  HN  S   1   113949.012                              52   -0.15    230 281 
 NOR  HE  S       1140 0.518                              50    0.50    278 257 
 NOR  HZ  P       113928.643                              48    2.65    278 257 
 PTGC HZ  P   1   113918.637                              47    0.43    214 171 
 PTGC HN  S       113944.414                              48   -1.65    214 171 
 VIL  EE  S       1140 0.447                              48    3.56    263 212 
 VIL  EZ  P       113930.120                              47    5.90    263 212 
 ZAR  HZ  P       113934.122                              50    4.55    310 299 
 ZAR  HN  S       1140 7.856                              51    1.36    310 299 
 HEL  HN  S       114017.433                              50    2.89    344 271 
 HEL  HZ  P       113934.813                              49    0.74    344 271 
                                                                                

