 2022  1 1 1227 23.1 L   6.766 -73.176140.1  SGC 11 0.7 1.7 SGC                1
 Action:ARG 23-01-27 11:28 OP:anls STATUS:               ID:20220101122723     I
 ARC                 2022 0101 1225 23   800                                   6
 STAT SP IPHASW D HRMM SECON CODA AMPLIT PERI AZIMU VELO AIN AR TRES W  DIS CAZ7
 PAM  EZ  P   1   122746.147                             147    0.26   82.6  39 
 PAM  EE  S       1228 3.457                             147   -0.52   82.6  39 
 PDSC HZ  P   1   122743.091                             165    0.30   27.9  26 
 PDSC HE  S   1   122758.427                             165    0.02   27.9  26 
 BAR2 HZ  P   1   122743.061                             169    0.27   19.4 182 
 BAR2 HE  S   1   122758.636                             170    0.22   19.4 182 
 PTB  HZ  P   1   122750.278                             130    0.26    143 259 
 PTB  HE  S       122810.817                             130   -0.62    143 259 
 ZAR  HZ  P   1   122755.615                             120   -0.14    202 293 
 ZAR  HE  S       122821.491                             120   -0.30    202 293 
 SPBC HN  S       122814.213                             127   -0.85    158 218 
 DRL03HE  S       122838.148                             110   -1.60    293 353 
 DRL03HZ  P       1228 2.569                             109   -3.12    293 353 
 NOR  HE  S       122827.798                             116    0.14    230 234 
 CHI  HZ  P       1228 1.113                             113   -0.52    245 194 
 CHI  HN  S       122831.356                             113   -0.97    245 194 
 RUS  HZ  P   1   122746.992                             142   -0.37   97.7 174 
 RUS  HN  S       1228 5.914                             142   -0.71   97.7 174 
 SPBC HZ  P   1   122752.005                             127   -0.03    158 218 
 YPLC HZ  P   1   122754.108                             122   -0.02    175 149 
 YPLC HE  S       122817.558                             122   -1.31    175 149 
 NOR  HZ  P   1   122759.121                             116    0.10    230 234 
                                                                                

