 2022  1 1 1712 11.2 L   6.835 -73.147147.7  SGC  5 0.3 1.8 SGC                1
 Action:ARG 23-01-27 11:28 OP:anls STATUS:               ID:20220101171211     I
 ARC                 2022 0101 1710 11   800                                   6
 STAT SP IPHASW D HRMM SECON CODA AMPLIT PERI AZIMU VELO AIN AR TRES W  DIS CAZ7
 BAR2 HZ  P   1   171229.868                             169   -1.34   27.2 188 
 BAR2 HN  S   1   171247.073                             169    0.30   27.2 188 
 RUS  HZ  P   1   171235.228                             143   -0.25    104 176 
 RUS  HN  S   1   171254.448                             143    0.07    104 176 
 PTB  HZ  P   1   171238.897                             132    0.45    148 257 
 PTB  HN  S   1   171259.225                             132   -0.43    148 257 
 CHI  HZ  P   1   171250.095                             117    0.61    252 195 
 NOR  HZ  P   1   171247.552                             119    0.21    237 234 
 NOR  HN  S   1   171315.594                             119    0.11    237 234 
                                                                                

