 2022  1 1 1532 57.6 L   6.724 -73.210126.0  SGC  9 0.6 1.6 SGC                1
 Action:ARG 23-01-27 11:28 OP:anls STATUS:               ID:20220101153257     I
 ARC                 2022 0101 1530 57   800                                   6
 STAT SP IPHASW D HRMM SECON CODA AMPLIT PERI AZIMU VELO AIN AR TRES W  DIS CAZ7
 BAR2 HZ  P   1   153316.058                             170    0.51   15.0 168 
 BAR2 HN  S       153330.763                             170    1.01   15.0 168 
 BRJC HZ  P   1   153316.752                             149   -0.50   65.1 295 
 BRJC HN  S       153333.596                             149    0.78   65.1 295 
 RUS  HZ  P   1   153320.518                             140    0.27   93.5 171 
 RUS  HN  S       153337.636                             140   -0.56   93.5 171 
 PAM  EZ  P   1   153319.158                             142   -0.29   88.6  39 
 PAM  EN  S       153335.499                             142   -1.24   88.6  39 
 PTB  HZ  P   1   153322.784                             127   -0.26    139 261 
 PTB  HN  S       153342.990                             127   -0.26    139 261 
 ZAR  HZ  P   1   153329.008                             116   -0.30    200 295 
 ZAR  HN  S       153354.834                             117    0.29    200 295 
 NOR  HZ  P       153333.340                             113    1.14    224 234 
 NOR  HN  S       153359.360                             113   -0.37    224 234 
 CHI  HZ  P       153334.354                             110   -0.56    240 194 
 CHI  HN  S       1534 3.784                             110   -0.80    240 194 
 HEL  HN  S       1534 7.046                             109   -0.82    263 256 
 HEL  HZ  P       153338.066                             109    1.35    263 256 
                                                                                

