 2022  1 1 1338 54.4 L   6.732 -73.171148.0  SGC  5 0.7 1.7 SGC                1
 Action:ARG 23-01-27 11:28 OP:anls STATUS:               ID:20220101133854     I
 ARC                 2022 0101 1336 54   800                                   6
 STAT SP IPHASW D HRMM SECON CODA AMPLIT PERI AZIMU VELO AIN AR TRES W  DIS CAZ7
 RUS  HZ  P   1   133917.779                             146   -0.15   93.5 174 
 RUS  HN  S   1   133936.701                             146    0.46   93.5 174 
 BAR2 HZ  P   1   133913.888                             174   -0.34   15.6 184 
 BAR2 HE  S   1   133929.420                             174   -0.23   15.6 184 
 CHI  HZ  P   1   133932.334                             118    0.88    241 195 
 CHI  HE  S   1   1340 1.121                             118    0.82    241 195 
 PTB  HZ  P   1   133920.773                             133   -0.48    143 261 
 PTB  HN  S   1   133941.403                             133   -0.75    143 261 
 ZAR  HZ  P   1   133926.997                             123   -0.09    204 294 
 ZAR  HE  S   1   133954.167                             123    1.63    204 294 
                                                                                

