 2022  1 1 1620 32.7 L   6.761 -73.185142.5  SGC 27 1.1 2.2 SGC                1
 Action:ARG 23-01-27 11:28 OP:anls STATUS:               ID:20220101162032     I
 ARC                 2022 0101 1618 32   800                                   6
 STAT SP IPHASW D HRMM SECON CODA AMPLIT PERI AZIMU VELO AIN AR TRES W  DIS CAZ7
 CGIR2HZ  P       162053.029                                           28.9  12 
 CGIR2HE  S       1621 8.380                                           28.9  12 
 PDSC HE  S   1   1621 8.210                             165   -0.43   29.0  27 
 CBUISHZ  P   1   162053.488                             160    0.39   42.9   9 
 CBUISHE  S   1   1621 8.830                             160   -0.41   42.9   9 
 BRJC HE  S       162112.312                             152    1.11   66.0 290 
 RUS  HN  S   1   162116.139                             143   -0.52   97.2 173 
 PTB  HE  S   1   162121.043                             131   -0.21    142 260 
 ROSC BE  S       162141.450                             114   -1.36    247 210 
 PIRM HZ  P       162119.706                             108    0.80    310 228 
 PIRM HN  S       162152.795                             109   -2.91    310 228 
 YPLC HN  S       162127.301                             123   -1.52    175 149 
 CBOC HN  S       162156.926                             107   -1.43    328 252 
 BAR2 HZ  P   1   162053.089                             170    0.36   18.8 178 
 BAR2 HN  S   1   1621 8.590                             170    0.02   18.8 178 
 PDSC HZ  P   1   162053.155                             165    0.39   29.0  27 
 BRJC HZ  P   1   162055.050                             152    0.87   66.0 290 
 PAM  EZ  P   1   162056.268                             147    0.40   83.7  39 
 PAM  EN  S   1   162113.148                             147   -1.07   83.7  39 
 RUS  HZ  P   1   162057.198                             143   -0.02   97.2 173 
 PTB  HZ  P   1   1621 0.048                             131    0.29    142 260 
 TAM  HZ  P   1 D 1621 1.758                             126   -0.30    158 103 
 TAM  HN  S       162122.926                             126   -2.49    158 103 
 SPBC HZ  P   1   1621 2.208                             128    0.44    157 218 
 SPBC HN  S   1   162123.796                             128   -1.06    157 218 
 YPLC HZ  P   1   1621 3.790                             123   -0.16    175 149 
 ZAR  HZ  P   1   1621 5.498                             120    0.02    201 293 
 ZAR  HN  S       162130.234                             121   -1.35    201 293 
 NOR  HZ  P   1   1621 9.048                             116    0.37    229 234 
 NOR  HN  S   1   162136.253                             116   -1.06    229 234 
 CHI  HZ  P   1   162111.246                             113   -0.07    244 194 
 CHI  HN  S       162140.379                             113   -1.65    244 194 
 ROSC BZ  P       162112.800                             113    1.07    247 210 
 CVER HZ  P   1   162112.891                             111   -0.99    267 201 
 HEL  HZ  P       162113.680                             112    0.70    266 256 
 HEL  HN  S   1   162143.939                             113   -1.13    266 256 
 DRL03HZ  P   1   162115.226                             110   -0.27    294 353 
 DRL03HN  S       162148.398                             110   -1.29    294 353 
 VIL  EZ  P   1   162116.674                             109    0.00    299 190 
 VIL  EN  S       162150.138                             109   -1.64    299 190 
 CBOC HZ  P       162121.036                             107    0.68    328 252 
 DRL02HZ  P       162117.760                             107   -2.03    330 358 
 DRL02HN  S       162153.233                             107   -4.22    330 358 
 DRL01HZ  P   1   162119.615                             107   -0.33    331 350 
 DRL01HN  S       162155.763                             107   -1.97    331 350 
 PRA  HZ  P   1   162127.142                             104    0.10    387 209 
 PRA  HN  S       1622 8.838                             104   -1.59    387 209 
 ORTC HZ  P   1   162127.428                             103   -0.18    390 215 
 ORTC HN  S       1622 9.903                             103   -1.54    390 215 
 URMC HZ  P       162130.121                             103    0.71    412 198 
 URMC HN  S       162213.334                             103   -1.41    412 198 
 CRJC HZ  P       162133.828                             101   -2.69    474   4 
 CRJC HN  S       162220.962                             101   -6.67    474   4 
                                                                                

