 2022  1 1 1221 40.3 L   5.167 -72.627 16.2  SGC  9 1.2 1.6 SGC                1
 Action:ARG 23-01-27 11:28 OP:anls STATUS:               ID:20220101122140     I
 ARC                 2022 0101 1219 40   800                                   6
 STAT SP IPHASW D HRMM SECON CODA AMPLIT PERI AZIMU VELO AIN AR TRES W  DIS CAZ7
 YPLC HZ  P   1   122148.488                              98    0.04   37.4  46 
 YPLC HE  S       1222 0.411                              98    5.68   37.4  46 
 RUS  HZ  P   1   122158.202                              80   -0.42   95.1 327 
 RUS  HE  S       1222 8.445                              79   -4.41   95.1 327 
 TAM  HZ  P   1   122211.288                              59    1.10    168  33 
 TAM  HE  S   1   122233.606                              70    0.09    168  33 
 PTGC HZ  P   1   1222 1.747                              76   -0.45    120 153 
 PTGC HE  S       122217.596                              76   -1.60    120 153 
 BAR2 HZ  P   1   122210.156                              64    0.07    169 338 
 BAR2 HE  S   1   122232.313                              70   -0.98    169 338 
 CHI  HZ  P   1   1222 5.305                              75   -0.08    136 244 
 CHI  HE  S   1   122224.873                              75    0.03    136 244 
 SPBC HZ  P   1   122210.156                              45    0.02    168 288 
 SPBC HN  S   1   122232.474                              47   -1.12    168 288 
 VIL  EZ  P   1   1222 9.833                              47    0.82    166 225 
 VIL  EN  S       122233.445                              48    1.85    166 225 
 PGA6 HZ  P       122219.375                              50    5.15    211 137 
 PGA6 HN  S       122238.458                              51   -2.60    211 137 
                                                                                

