 2022  1 1 1754 14.2 L   6.820 -76.190 26.8  SGC 22 1.2 2.3 SGC                1
 Action:ARG 23-01-27 11:28 OP:anls STATUS:               ID:20220101175414     I
 ARC                 2022 0101 1752 14   800                                   6
 STAT SP IPHASW D HRMM SECON CODA AMPLIT PERI AZIMU VELO AIN AR TRES W  DIS CAZ7
 HEL  HZ  P   1   175431.068                             102    0.07    100 133 
 HEL  HN  S   1   175443.288                             102   -0.78    100 133 
 APAC HN  S   1   175454.588                              68   -0.89    127 340 
 CBOC HZ  P   1   175432.688                             101    0.32    107 169 
 CBOC HN  S   1   175445.347                             102   -1.16    107 169 
 QUBC HZ  P   1   175435.748                             101    0.04    124 197 
 QUBC HN  S       175450.572                             101   -1.88    124 197 
 PIRM HZ  P       175452.900                              56    1.27    235 155 
 PIRM HN  S       175518.646                              69   -2.55    235 155 
 APAC HZ  P   1   175437.028                              62   -0.26    127 340 
 ZAR  HZ  P   1   175441.198                              84   -0.05    165  63 
 ZAR  HN  S       1755 0.300                              92   -2.05    165  63 
 PTB  HZ  P   1   175445.498                              90    0.60    193  99 
 PTB  HN  S   1   1755 8.330                              96   -0.51    193  99 
 PTA  HZ  P   1   175443.391                              58    0.17    181 281 
 PTA  HN  S   1   1755 5.773                              59   -0.52    181 281 
 NOR  HZ  P   1   175446.568                              98    0.83    201 133 
 NOR  HN  S   1   1755 9.621                              99   -0.69    201 133 
 LCBC HZ  P   1   175449.695                              54   -0.71    227 355 
 LCBC HN  S       175516.533                              55   -2.71    227 355 
 SPBC HZ  P       175456.366                              49    1.22    267 119 
 SPBC HN  S   1   175527.977                              51    0.46    267 119 
 BRJC HZ  P       175456.961                              49    2.15    270  86 
 BRJC HN  S       175528.534                              51    1.43    270  86 
 ROSC BZ  P   1   175459.544                              49   -0.35    300 136 
 ROSC BN  S       175533.851                              51   -2.35    300 136 
 YOT  HZ  P   1   1755 1.088                              53    0.65    315 183 
 BAR2 HZ  P       1755 4.405                              49    1.28    333  94 
 BAR2 HN  S       175540.636                              51   -1.46    333  94 
 ORTC HZ  P   1   1755 4.380                              52    0.38    339 162 
 ORTC HN  S   1   175542.611                              53   -1.07    339 162 
 RUS  HZ  P   1   1755 7.342                              49    0.37    358 106 
 RUS  HN  S       175546.763                              50   -2.26    358 106 
 CHI  HZ  P       175510.608                              49    3.00    363 132 
 CHI  HN  S       175551.625                              50    1.54    363 132 
 PRA  HZ  P       1755 5.494                              51   -2.75    373 157 
 PAM  EZ  P       175512.488                              49    2.44    389  81 
 PAM  EN  S   1   175553.967                              51   -0.60    389  81 
 YPLC HZ  P   1   175517.204                              49   -0.74    449 110 
 DRL02HZ  P   1   175518.470                              50    0.79    457  44 
 DRL02HN  S       1756 4.828                              52   -3.66    457  44 
                                                                                

