 2022  1 1 12 4 47.0 L   6.592 -73.182 10.0  SGC  310.2 0.8 SGC                1
 Action:ARG 23-01-27 11:28 OP:anls STATUS:               ID:20220101120447     I
 ARC                 2022 0101 1202 47   800                                   6
 STAT SP IPHASW D HRMM SECON CODA AMPLIT PERI AZIMU VELO AIN AR TRES W  DIS CAZ7
 BAR2 HZ  P   1   12 449.773                                    1.05            
 BAR2 HE  S   1   12 5 4.758                                   14.78            
 RUS  HZ  P   1   12 453.713                                   -6.87   78.5 171 
 RUS  HN  S   1   12 511.203                                    0.76   78.5 171 
 PTB  HZ  P   1   12 455.733                                   -15.0    140 267 
 PTB  HN  S   1   12 517.081                                   -11.4    140 267 
                                                                                

