 2022  1 1 1447 34.6 L   6.719 -73.177136.0  SGC 21 0.8 2.1 SGC                1
 Action:ARG 23-01-27 11:28 OP:anls STATUS:               ID:20220101144734     I
 ARC                 2022 0101 1445 34   800                                   6
 STAT SP IPHASW D HRMM SECON CODA AMPLIT PERI AZIMU VELO AIN AR TRES W  DIS CAZ7
 PAM  EZ  P   1   144757.278                             144    0.00   86.8  37 
 PAM  EN  S       144814.276                             145   -0.99   86.8  37 
 BAR2 HZ  P   1   144754.258                             171    0.54   14.1 182 
 BAR2 HN  S   1   1448 9.471                             171    0.61   14.1 182 
 BRJC HZ  P   1   144755.890                             150    0.38   68.7 294 
 BRJC HN  S       144813.098                             150    1.00   68.7 294 
 RUS  HZ  P   1   144758.218                             143    0.12   92.4 173 
 RUS  HN  S       144816.157                             143   -0.58   92.4 173 
 TAM  HZ  P   1   1448 2.658                             124   -0.61    156 101 
 TAM  HN  S       144823.995                             124   -2.09    156 101 
 PTB  HZ  P   1   1448 0.838                             129   -0.28    142 261 
 PTB  HN  S       144821.517                             129   -0.68    142 261 
 YPLC HZ  P   1   1448 4.620                             122   -0.30    171 149 
 PDSC HZ  P   1   144754.065                             163    0.08   32.8  22 
 PDSC HN  S   1   1448 9.104                             163   -0.23   32.8  22 
 CBUISHZ  P   1   144754.622                             158    0.22   47.4   7 
 CBUISHN  S   1   144810.371                             158    0.27   47.4   7 
 SPBC HZ  P   1   1448 3.238                             126    0.39    154 219 
 SPBC HN  S       144824.978                             127   -0.33    154 219 
 YPLC HN  S       144828.088                             122   -0.98    171 149 
 ZAR  HZ  P   1   1448 6.558                             118   -0.68    204 294 
 ZAR  HN  S       144831.723                             119   -1.53    204 294 
 NOR  HZ  P   1   144810.118                             115    0.13    227 235 
 NOR  HN  S       144837.724                             115   -0.44    227 235 
 CHI  HZ  P   1   144812.510                             112    0.13    240 194 
 CHI  HN  S       144841.245                             112   -1.20    240 194 
 ROSC BZ  P   1   144812.450                             112   -0.43    243 211 
 ROSC BN  S       144842.003                             112   -1.37    243 211 
 HEL  HZ  P       144814.560                             111    0.04    266 257 
 HEL  HN  S       144845.628                             111   -0.71    266 257 
 CVER HZ  P       144815.758                             110    0.75    263 202 
 DRL03HZ  P       144816.178                             108   -1.46    298 353 
 DRL03HN  S       144848.823                             108   -3.23    298 353 
 VIL  EZ  P       144818.000                             108    0.23    295 191 
 PIRM HZ  P       144822.400                             107    2.16    308 229 
 PIRM HN  S       144855.699                             107   -0.91    308 229 
 PRA  HZ  P       144828.082                             103   -0.20    384 209 
 PRA  HN  S       1449 9.861                             103   -1.31    384 209 
 ORTC HZ  P       144829.095                             102    0.20    387 216 
 ORTC HN  S       144911.847                             102   -0.42    387 216 
                                                                                

