 2022  1 1 1257  8.1 L   3.876 -71.645  0.0  SGC 11 1.4 2.3 SGC                1
 Action:ARG 23-01-27 11:28 OP:anls STATUS:               ID:20220101125708     I
 ARC                 2022 0101 1255 08   800                                   6
 STAT SP IPHASW D HRMM SECON CODA AMPLIT PERI AZIMU VELO AIN AR TRES W  DIS CAZ7
 PTGC HZ  P   1   125718.089                              47   -1.12   64.9 303 
 PTGC HN  S   1   125729.473                              47    1.68   64.9 303 
 YPLC HE  S   1   1258 0.529                              37    0.04    187 334 
 YPLC HZ  P   1   125735.740                              37   -1.84    187 334 
 GUA  EZ  P   1   125730.917                              37   -6.12    183 217 
 GUA  EN  S   1   125756.124                              37   -3.42    183 217 
 ACH1 HZ  P   1   125737.390                              37   -4.93    225 272 
 ACH1 HE  S   1   125812.854                              37    3.91    225 272 
 VIL  EZ  P   1   125743.447                              37    0.54    229 277 
 VIL  EN  S   1   1258 9.542                              37   -0.44    229 277 
 CHI  HN  S   1   125815.582                              37    1.05    246 290 
 CHI  HZ  P   1   125744.569                              37   -0.89    246 290 
 RUS  HZ  P   1   125750.452                              37    1.47    274 324 
 TAM  HZ  P   1   125749.658                              37    0.05    283 357 
 TAM  HE  S   1   125823.412                              37    1.51    283 357 
 URMC HN  S   1   125830.591                              36    2.39    311 257 
 URMC HZ  P   1   125753.507                              36    0.37    311 257 
 PRA  HZ  P   1   1258 1.275                              36    2.14    360 267 
 PRA  HN  S   1   125839.550                              36    0.69    360 267 
 PIRM HN  S   1   125853.441                              36    0.42    419 286 
 PIRM HZ  P   1   1258 9.001                              36    1.91    419 286 
 RUS  HN  S   1   125817.762                              37   -3.03    274 324 
                                                                                

