 2022  1 1 1243 59.2 L   4.752 -75.971110.7  SGC 11 1.2 1.6 SGC                1
 Action:ARG 23-01-27 11:28 OP:anls STATUS:               ID:20220101124359     I
 ARC                 2022 0101 1241 59   800                                   6
 STAT SP IPHASW D HRMM SECON CODA AMPLIT PERI AZIMU VELO AIN AR TRES W  DIS CAZ7
 CBOC HZ  P   1   124420.266                             128   -1.11    123 358 
 CBOC HE  S   1   124438.075                             128   -0.56    123 358 
 QUBC HN  S   1   124437.330                             127   -1.34    125 331 
 HEL  HZ  P   1   124425.474                             119   -0.58    166  17 
 HEL  HN  S   1   124447.103                             119    0.15    166  17 
 NOR  HZ  P   1   124419.968                             122   -4.10    151  54 
 NOR  HN  S   1   124444.722                             122    1.29    151  54 
 PIRM HZ  P   1   124419.224                             143    1.12   78.2  78 
 PTB  HE  S   1   1245 4.474                             108   -0.22    259  40 
 PIRM HE  S   1   124434.167                             143    1.38   78.2  78 
 QUBC HZ  P   1   124423.578                             127    2.18    125 331 
 PRA  HZ  P   1   124425.560                             119   -0.05    166 134 
 PRA  HN  S   1   124447.521                             119    1.35    166 134 
 JAMC HZ  P   1   124427.570                             116   -0.50    187 205 
 JAMC HE  S   1   124449.909                             116   -0.64    187 205 
 CHI  HZ  P   1   124436.678                             109    1.45    248  93 
 CHI  HE  S   1   1245 6.274                             109    2.97    248  93 
 URMC HZ  P   1   124432.958                             109   -1.23    242 133 
 URMC HN  S   1   1245 0.775                             109   -0.66    242 133 
 PTB  HZ  P   1   124437.002                             108    0.98    259  40 
 VIL  EZ  P   1   124437.163                             107    0.62    262 106 
                                                                                

