 2022  1 1 1745 55.2 L   2.022 -75.810 18.8  SGC 10 0.8 1.6 SGC                1
 Action:ARG 23-01-27 11:28 OP:anls STATUS:               ID:20220101174555     I
 ARC                 2022 0101 1743 55   800                                   6
 STAT SP IPHASW D HRMM SECON CODA AMPLIT PERI AZIMU VELO AIN AR TRES W  DIS CAZ7
 GARC HZ  P   1   1746 3.188                             106    0.20   39.7  62 
 GARC HN  S   1   1746 8.368                             106   -0.65   39.7  62 
 FLO2 HZ  P   1 D 1746 4.538                              98   -0.16   51.8 160 
 FLO2 HN  S       174610.666                              98   -1.40   51.8 160 
 COBO HZ  P   1   1746 8.540                              93    0.11   73.5 297 
 COBO HN  S   1   174617.656                              93   -1.04   73.5 297 
 SOTO HZ  P   1   174611.140                              88    0.22   89.5 278 
 SOTO HN  S       174621.297                              88   -1.84   89.5 278 
 URMC HZ  P       174629.663                              75    0.63    209  49 
 URMC HN  S       174653.226                              75   -2.19    209  49 
 PRA  HZ  P       174629.879                              65   -0.59    214  28 
 PRA  HN  S       174655.438                              66   -2.54    214  28 
 ORTC HZ  P       174631.708                              56    0.60    219  16 
 ORTC HN  S       174658.246                              60   -0.98    219  16 
 MARO HZ  P   1   174611.595                              88    0.40   92.6 350 
 MARO HN  S       174622.142                              88   -1.49   92.6 350 
 BELO HZ  P   1   174614.134                              84   -0.34    114     
 BELO HN  S       174628.716                              85   -0.75    114     
 MACC HZ  P       174630.457                              70    0.54    218  86 
                                                                                

