 2022  1 1 1215 45.9 L   3.588 -74.461 22.1  SGC  9 0.7 1.6 SGC                1
 Action:ARG 23-01-27 11:28 OP:anls STATUS:               ID:20220101121545     I
 ARC                 2022 0101 1213 45   800                                   6
 STAT SP IPHASW D HRMM SECON CODA AMPLIT PERI AZIMU VELO AIN AR TRES W  DIS CAZ7
 URMC HE  S   1   121558.248                             108   -0.46   39.0 166 
 URMC HZ  P   1   121552.817                             108    0.08   39.0 166 
 PRA  HE  S   1   1216 1.473                             101   -0.23   49.2 286 
 PRA  HZ  P   1   121554.535                             101    0.11   49.2 286 
 CLEJAHZ  P   1   121554.025                             102   -0.01   46.9  97 
 CLEJAHN  S       121559.805                             102   -1.21   46.9  97 
 VIL  EN  S       121616.841                              87    0.38    103  55 
 VIL  EZ  P   1   1216 3.280                              88    0.56    103  55 
 CVER HZ  P   1   1216 4.701                              85   -0.14    112  22 
 CVER HN  S       121619.513                              85   -0.80    112  22 
 ROSC BN  S       121624.703                              80   -3.52    140   6 
 ROSC BZ  P   1   1216 9.468                              81    0.15    140   6 
 CHI  HZ  P   1   1216 8.643                              82   -0.20    140  34 
 CHI  HE  S       121625.240                              82   -2.11    140  34 
 PIRM HZ  P       121612.914                              80   -1.15    172 328 
 PIRM HN  S       121633.549                              79   -3.11    172 328 
 MARO HE  S       121637.597                              81   -1.55    185 243 
 MARO HZ  P       121614.546                              81   -0.91    185 243 
                                                                                

