 2022  1 1 1622 52.5 L   6.682 -73.154127.9  SGC 10 0.8 1.8 SGC                1
 Action:ARG 23-01-27 11:28 OP:anls STATUS:               ID:20220101162252     I
 ARC                 2022 0101 1620 52   800                                   6
 STAT SP IPHASW D HRMM SECON CODA AMPLIT PERI AZIMU VELO AIN AR TRES W  DIS CAZ7
 BAR2 HZ  P   1   162311.078                             172    0.50   10.4 197 
 BAR2 HN  S       162326.282                             173    1.39   10.4 197 
 BRJC HZ  P   1   162312.680                             147   -0.14   72.7 296 
 BRJC HN  S       162329.780                             147    0.85   72.7 296 
 RUS  HZ  P   1   162314.918                             142    0.04   88.1 174 
 RUS  HN  S       162332.073                             142   -0.56   88.1 174 
 PAM  EZ  P   1   162313.798                             142   -0.72   88.7  34 
 PAM  EN  S       162331.042                             142   -0.92   88.7  34 
 PTB  HZ  P   1   162318.107                             126   -0.48    144 263 
 PTB  HN  S       162338.104                             126   -1.21    144 263 
 ZAR  HZ  P       162326.275                             116    1.16    208 295 
 ZAR  HN  S       162347.638                             116   -3.47    208 295 
 NOR  HZ  P   1   162327.416                             113   -0.04    226 236 
 NOR  HN  S       162355.107                             113   -0.17    226 236 
 CHI  HZ  P   1   162329.268                             111   -0.27    237 195 
 CHI  HN  S       162358.306                             111   -0.70    237 195 
 PIRM HZ  P       162338.512                             106    0.76    307 230 
 PIRM HN  S       162412.821                             106   -1.00    307 230 
 HEL  HZ  P       162332.765                             109    0.52    268 258 
 HEL  HN  S       1624 5.000                             109    1.09    268 258 
                                                                                

