 2022  1 1 1039 11.2 L   5.622 -72.659 25.1  SGC  6 1.0 1.5 SGC                1
 Action:ARG 23-01-27 11:28 OP:anls STATUS:               ID:20220101103911     I
 ARC                 2022 0101 1037 11   800                                   6
 STAT SP IPHASW D HRMM SECON CODA AMPLIT PERI AZIMU VELO AIN AR TRES W  DIS CAZ7
 YPLC HZ  P   1   103919.728                             114   -0.17   39.8 129 
 YPLC HE  S   1   103928.283                             114    1.47   39.8 129 
 TAM  HZ  P   1   103935.965                              99    1.30    131  46 
 TAM  HE  S       103952.461                              99   -0.62    131  46 
 PTGC HZ  P   1   103939.523                              51    0.23    168 159 
 PTGC HE  S       1040 1.841                              52    0.16    168 159 
 BAR2 HN  S       103948.741                              96   -0.92    122 331 
 CHI  HZ  P   1   103939.038                              49   -0.27    162 227 
 CHI  HN  S       1040 2.326                              51    0.75    162 227 
 PTB  HZ  P       103947.242                              48    1.25    223 297 
 PTB  HN  S       104016.623                              49    2.93    223 297 
 BAR2 HZ  P   1   103933.637                              96    0.90    122 331 
                                                                                

