 2022  1 1 1946  3.2 L   6.814 -73.184130.3  SGC  5 0.2 1.7 SGC                1
 Action:ARG 23-01-27 11:28 OP:anls STATUS:               ID:20220101194603     I
 ARC                 2022 0101 1944 03   800                                   6
 STAT SP IPHASW D HRMM SECON CODA AMPLIT PERI AZIMU VELO AIN AR TRES W  DIS CAZ7
 RUS  HZ  P   1   194625.628                             140   -0.05    102 174 
 RUS  HN  S   1   194643.244                             140    0.07    102 174 
 PAM  EZ  P   1   194624.048                             147    0.09   79.0  43 
 PAM  EN  S   1   194640.014                             147   -0.10   79.0  43 
 PTB  HZ  P   1   194628.128                             129   -0.52    143 258 
 PTB  HN  S   1   194648.398                             129   -0.05    143 258 
 BRJC HZ  P   1   194622.475                             152    0.13   64.3 286 
 BRJC HN  S   1   194638.341                             152    1.11   64.3 286 
 ZAR  HZ  P   1   194634.619                             119    0.36    199 292 
 ZAR  HN  S   1   194658.869                             119    0.43    199 292 
                                                                                

