 2022  1 1 1156 44.9 L   6.689 -73.138131.3  SGC 17 0.8 1.9 SGC                1
 Action:ARG 23-01-27 11:28 OP:anls STATUS:               ID:20220101115644     I
 ARC                 2022 0101 1154 44   800                                   6
 STAT SP IPHASW D HRMM SECON CODA AMPLIT PERI AZIMU VELO AIN AR TRES W  DIS CAZ7
 BAR2 HZ  P   1   1157 4.181                             172    0.79   11.8 204 
 BAR2 HE  S       115719.121                             172    1.07   11.8 204 
 PDSC HE  S   1   115718.274                             162   -0.46   34.7  13 
 BRJC HZ  P   1   1157 5.840                             147    0.22   74.0 295 
 BRJC HE  S   1   115722.439                             147    0.36   74.0 295 
 RUS  HN  S       115726.140                             143    0.46   88.8 176 
 RUS  HZ  P   1   1157 7.542                             143   -0.09   88.8 176 
 PAM  EZ  P   1   1157 6.895                             143   -0.21   87.0  33 
 PAM  EN  S       115723.391                             144   -1.33   87.0  33 
 PTB  HZ  P   1   115710.129                             127   -1.27    146 263 
 PTB  HN  S       115731.801                             127   -0.67    146 263 
 SPBC HZ  P   1   115713.040                             125    0.23    154 221 
 SPBC HN  S       115734.873                             125   -0.14    154 221 
 ZAR  HZ  P   1   115718.377                             116    0.57    209 295 
 ZAR  HE  S       115743.445                             117   -0.62    209 295 
 NOR  HZ  P   1   115720.318                             114    0.11    228 236 
 NOR  HE  S       115748.782                             114    0.43    228 236 
 CHI  HZ  P       115721.288                             111   -0.92    238 196 
 CHI  HE  S       115751.369                             111   -0.55    238 196 
 PIRM HZ  P       115732.447                             106    1.98    309 230 
 PIRM HE  S       1158 7.865                             106    1.06    309 230 
 PDSC HZ  P   1   1157 3.715                             162   -0.05   34.7  13 
 CBUISHZ  P   1   1157 4.356                             156    0.08   50.3   2 
 CBUISHE  S   1   115719.711                             156    0.06   50.3   2 
 TAM  HZ  P   1   115712.549                             124   -0.18    151 100 
 TAM  HE  S       115733.147                             124   -1.76    151 100 
 YPLC HN  S       115738.437                             122    0.57    166 149 
 YPLC HZ  P       115712.970                             121   -1.41    166 149 
 ROSC BZ  P       115723.457                             111    0.58    243 212 
 ROSC BN  S       115751.733                             111   -1.40    243 212 
 HEL  HZ  P       115726.031                             110    1.05    270 258 
 HEL  HE  S       115755.104                             110   -1.84    270 258 
 CBOC HZ  P       115731.368                             105   -1.04    330 253 
 CBOC HN  S       1158 7.650                             105   -2.70    330 253 
                                                                                

