 2022  1 1 1318  4.5 L   3.763 -71.329  2.6  SGC  7 1.4 2.1 SGC                1
 Action:ARG 23-01-27 11:28 OP:anls STATUS:               ID:20220101131804     I
 ARC                 2022 0101 1316 04   800                                   6
 STAT SP IPHASW D HRMM SECON CODA AMPLIT PERI AZIMU VELO AIN AR TRES W  DIS CAZ7
 VIL  EZ  P   1   131842.749                              37   -0.69    265 278 
 VIL  EE  S   1   131914.771                              37    1.05    265 278 
 CHI  HZ  P   1   131844.205                              37   -1.90    284 290 
 CHI  HN  S   1   131916.226                              37   -2.23    284 290 
 URMC HZ  P       131858.922                              36    5.85    343 260 
 URMC HE  S       131937.089                              36    6.22    343 260 
 PGA6 HZ  P   1 C 1318 3.742                             152   -1.51   1.40 343 
 PGA6 HE  S   1   1318 5.483                             152   -0.27   1.40 343 
 YPLC HZ  P   1   131838.773                              37    1.69    215 327 
 YPLC HN  S   1   1319 1.098                              37   -1.30    215 327 
 RUS  HZ  P   1   131852.615                              36    3.75    305 320 
 RUS  HN  S   1   131925.358                              36    1.98    305 320 
 PTGC HZ  P   1   131822.560                              47    1.77    101 298 
 PTGC HE  S   1   131833.728                              47    0.31    101 298 
                                                                                

