 2022  1 1 1939 51.2 L   6.801 -73.189132.1  SGC  3 0.5 1.6 SGC                1
 Action:ARG 23-01-27 11:28 OP:anls STATUS:               ID:20220101193951     I
 ARC                 2022 0101 1937 51   800                                   6
 STAT SP IPHASW D HRMM SECON CODA AMPLIT PERI AZIMU VELO AIN AR TRES W  DIS CAZ7
 RUS  HZ  P   1   194013.559                                    0.07    101 173 
 RUS  HN  S   1   194031.249                                    0.50    101 173 
 PAM  EZ  P   1   194012.378                                    0.40   80.7  42 
 PAM  EN  S   1   194028.436                                    0.39   80.7  42 
 PTB  HZ  P   1   194016.458                                   -0.67    142 258 
 PTB  HN  S   1   194036.548                                   -0.70    142 258 
                                                                                

