 2022  1 1 1555 17.9 L   6.766 -73.124145.6  SGC  5 0.1 1.7 SGC                1
 Action:ARG 23-01-27 11:28 OP:anls STATUS:               ID:20220101155517     I
 ARC                 2022 0101 1553 17   800                                   6
 STAT SP IPHASW D HRMM SECON CODA AMPLIT PERI AZIMU VELO AIN AR TRES W  DIS CAZ7
 BAR2 HN  S   1   155552.549                             172   -0.19   20.2 198 
 BRJC HZ  P   1   155539.070                             152   -0.05   72.2 289 
 RUS  HZ  P   1   155541.219                             145   -0.17   96.7 177 
 RUS  HN  S   1   155559.839                             145    0.16   96.7 177 
 BAR2 HZ  P   1   155537.395                             172   -0.09   20.2 198 
 PAM  EZ  P   1   155540.305                             150    0.08   78.9  36 
 BRJC HN  S   1   155556.342                             152    0.70   72.2 289 
 NOR  HN  S   1   155621.643                             118    0.17    234 235 
 NOR  HZ  P       155553.766                             118    0.14    234 235 
                                                                                

