 2022  1 1 1126 43.5 L   7.030 -72.894 22.1  SGC  8 1.3 1.4 SGC                1
 Action:ARG 23-01-27 11:28 OP:anls STATUS:               ID:20220101112643     I
 ARC                 2022 0101 1124 43   800                                   6
 STAT SP IPHASW D HRMM SECON CODA AMPLIT PERI AZIMU VELO AIN AR TRES W  DIS CAZ7
 PAM  EZ  P   1   112651.971                             109    0.10   40.6  31 
 PAM  EE  S   1   112657.755                             109   -0.64   40.6  31 
 BAR2 HZ  P   1   112654.684                              97    0.14   58.1 213 
 BAR2 HE  S   1   1127 2.591                              97   -0.56   58.1 213 
 RUS  HZ  P   1   1127 4.729                              87   -1.06    128 189 
 ZAR  HE  S   1   112744.412                              62   -0.74    222 283 
 SPBC HZ  P       1127 8.509                              58   -7.75    201 220 
 SPBC HE  S       112730.827                              63   -11.2    201 220 
 RUS  HN  S       112715.866                              87   -7.29    128 189 
 PTB  HZ  P       112716.039                              79    3.29    180 252 
 PTB  HE  S   1   112734.961                              80   -0.59    180 252 
 ZAR  HZ  P   1   112717.171                              59   -0.80    222 283 
 CHI  HZ  P   1   112726.874                              55   -0.06    282 199 
 NOR  HZ  P       112731.726                              56    7.15    272 233 
                                                                                

