 2022  1 1 1155 23.0 L   4.630 -73.737 10.0  SGC  327.9 1.3 SGC                1
 Action:ARG 23-01-27 11:28 OP:anls STATUS:               ID:20220101115523     I
 ARC                 2022 0101 1153 23   800                                   6
 STAT SP IPHASW D HRMM SECON CODA AMPLIT PERI AZIMU VELO AIN AR TRES W  DIS CAZ7
 CHI  HZ  P   1   115526.083                                    1.36            
 CHI  HE  S   1   115532.207                                    6.23            
 RUS  HZ  P   1   115524.940                                   -23.8    158  27 
 RUS  HN  S   1   115539.496                                   -28.8    158  27 
 YPLC HZ  P   1   115518.698                                   -31.9    172  60 
 YPLC HE  S   1   115524.726                                   -47.0    172  60 
                                                                                

