 2022  1 1 1540  9.4 L   5.167 -75.377 40.0  SGC  3 5.5 1.4 SGC                1
 Action:ARG 23-01-27 11:28 OP:anls STATUS:               ID:20220101154009     I
 ARC                 2022 0101 1538 09   800                                   6
 STAT SP IPHASW D HRMM SECON CODA AMPLIT PERI AZIMU VELO AIN AR TRES W  DIS CAZ7
 CHI  HZ  P   1   154045.598                              90    8.85    191 108 
 CHI  HN  S   1   154056.271                              90   -1.80    191 108 
 RUS  HZ  P   1   154046.358                              90    0.24    266  72 
 RUS  HN  S   1   154057.301                              90   -17.4    266  72 
 YOT  HZ  P   1   154036.238                              90    2.58    169 219 
 YOT  HN  S   1   154050.201                              90   -2.37    169 219 
                                                                                

