 2022  1 1 1534 48.5 L   2.169 -76.614  3.9  SGC  3 0.2 1.1 SGC                1
 Action:ARG 23-01-27 11:28 OP:anls STATUS:               ID:20220101153448     I
 ARC                 2022 0101 1532 48   800                                   6
 STAT SP IPHASW D HRMM SECON CODA AMPLIT PERI AZIMU VELO AIN AR TRES W  DIS CAZ7
 SOTO HZ  P   1 C 153450.390                             153    0.09   3.90 170 
 SOTO HN  S   1   153451.596                             153   -0.09   3.90 170 
 COBO HZ  P   1   153454.440                              47    0.21   29.8  54 
 COBO HN  S   1   153458.521                              47   -0.17   29.8  54 
 BBAC HZ  P   1   1535 1.567                              47    1.29   72.2 257 
 BBAC HN  S   1   1535 9.268                              47   -0.20   72.2 257 
                                                                                

