 2022  1 1 16 4  8.2 L   6.799 -73.113138.4  SGC  8 1.3 1.7 SGC                1
 Action:ARG 23-01-27 11:28 OP:anls STATUS:               ID:20220101160408     I
 ARC                 2022 0101 1602 08   800                                   6
 STAT SP IPHASW D HRMM SECON CODA AMPLIT PERI AZIMU VELO AIN AR TRES W  DIS CAZ7
 PTB  HN  S   1   16 454.925                             130   -0.81    151 259 
 NOR  HZ  P   1   16 443.521                             117   -0.31    237 235 
 NOR  HN  S   1   16 511.419                             117   -0.20    237 235 
 BAR2 HZ  P   1   16 425.162                             170   -1.81   24.1 198 
 BAR2 HN  S   1   16 441.913                             170    0.31   24.1 198 
 RUS  HZ  P   1   16 431.424                             142    0.20    100 178 
 RUS  HN  S   1   16 449.478                             142    0.31    100 178 
 PTB  HZ  P   1   16 434.353                             130   -0.56    151 259 
 ZAR  HZ  P   1   16 435.692                             120   -4.85    207 292 
 ZAR  HN  S   1   16 5 6.411                             120    0.65    207 292 
 CHI  HZ  P   1   16 447.612                             115    1.99    249 196 
 CHI  HN  S   1   16 517.436                             115    2.64    249 196 
 HEL  HZ  P   1   16 448.782                             113    0.33    275 256 
 PIRM HN  S   1   16 531.283                             110    2.16    319 229 
 PIRM HZ  P       16 453.174                             110   -0.50    319 229 
                                                                                

