 2022  1 1 1144 23.7 L   6.405 -74.826 27.9  SGC 10 0.9 1.2 SGC                1
 Action:ARG 23-01-27 11:28 OP:anls STATUS:               ID:20220101114423     I
 ARC                 2022 0101 1142 23   800                                   6
 STAT SP IPHASW D HRMM SECON CODA AMPLIT PERI AZIMU VELO AIN AR TRES W  DIS CAZ7
 PTB  HN  S   1   114438.373                             113   -0.62   43.6  69 
 PTB  HZ  P   1   114432.481                             113    0.16   43.6  69 
 HEL  HZ  P   1   114437.555                             101    0.13   81.3 252 
 HEL  HN  S   1   114447.267                             101   -0.81   81.3 252 
 NOR  HE  S       114449.996                              96   -1.68   93.7 183 
 NOR  HZ  P   1   114439.125                              97   -0.31   93.7 183 
 SPBC HE  S       114458.812                              93   -0.39    118 135 
 SPBC HZ  P   1   114443.921                              94    0.20    118 135 
 ZAR  HZ  P   1   114443.244                              96   -0.14    120 358 
 ZAR  HE  S       114455.977                              96   -2.73    120 358 
 BRJC HZ  P   1   114446.763                              93    0.60    135  62 
 BRJC HE  S       1145 1.252                              92   -2.39    135  62 
 CBOC HN  S       1145 3.893                              95   -0.71    144 245 
 CBOC HZ  P   1   114446.033                              95   -0.66    144 245 
 PIRM HZ  P       114453.394                              93    1.27    174 197 
 PIRM HN  S       114513.547                              93   -0.71    174 197 
 RUS  HE  S       114517.819                              65   -4.97    200 106 
 RUS  HZ  P       114455.651                              63   -1.12    200 106 
 PRA  HZ  P       114511.037                              57    2.53    299 181 
 PRA  HE  S       114544.706                              58    0.69    299 181 
                                                                                

