 2022  1 1 2035 25.4 L   7.404 -74.561 10.9  SGC  4 0.1 1.2 SGC                1
 Action:ARG 23-01-27 11:28 OP:anls STATUS:               ID:20220101203525     I
 ARC                 2022 0101 2033 25   800                                   6
 STAT SP IPHASW D HRMM SECON CODA AMPLIT PERI AZIMU VELO AIN AR TRES W  DIS CAZ7
 ZAR  HZ  P   1 D 203531.248                             103   -0.13   34.2 287 
 ZAR  HN  S   1   203536.122                             103    0.13   34.2 287 
 PTB  HZ  P   1   203540.618                              94   -0.09   96.4 173 
 PTB  HN  S   1   203552.651                              94    0.06   96.4 173 
 HEL  HZ  P   1   203552.529                              56    0.49    171 219 
 HEL  HN  S   1   203612.722                              56   -0.04    171 219 
 RUS  HZ  P   1   2036 0.159                              56    0.22    233 136 
 RUS  HN  S   1   203626.969                              56    0.14    233 136 
                                                                                

