 2022  1 1 2044 33.3 L   5.072 -72.901 16.0  SGC 15 1.2 1.7 SGC                1
 Action:ARG 23-01-27 11:28 OP:anls STATUS:               ID:20220101204433     I
 ARC                 2022 0101 2042 33   800                                   6
 STAT SP IPHASW D HRMM SECON CODA AMPLIT PERI AZIMU VELO AIN AR TRES W  DIS CAZ7
 RUS  HZ  P   1   204451.188                              79   -0.31   93.4 347 
 RUS  HN  S       2045 2.965                              79   -2.69   93.4 347 
 TAM  HZ  P       2045 7.597                              45    0.99    194  38 
 TAM  HN  S   1   204532.579                              45   -0.36    194  38 
 PTGC HZ  P   1   204455.408                              75   -1.32    129 138 
 PTGC HN  S       204510.976                              75   -3.95    129 138 
 CHI  HZ  P   1   204451.818                              77   -1.21    104 242 
 CHI  HN  S       2045 6.835                              77   -1.49    104 242 
 VIL  EZ  P   1   204458.038                              74    0.13    138 219 
 VIL  EN  S       204515.692                              74   -1.37    138 219 
 YPLC HZ  P   1   204447.470                              84    0.74   68.0  57 
 YPLC HN  S   1   204455.695                              84   -1.46   68.0  57 
 CVER HZ  P   1   2045 0.514                              74    1.16    143 244 
 CVER HN  S   1   204519.601                              73   -0.02    143 244 
 SPBC HZ  P   1   2045 0.028                              74    0.40    144 296 
 SPBC HN  S       204517.482                              74   -2.62    144 296 
 ROSC BZ  P   1   2045 2.902                              70    0.76    159 260 
 ROSC BN  S   1   204523.624                              71   -0.96    159 260 
 CLEJAHZ  P   1   2045 7.845                              45    0.37    212 216 
 CLEJAHN  S   1   204533.653                              46   -0.83    212 216 
 NOR  HZ  P       204510.678                              42    0.99    224 284 
 NOR  HN  S   1   204537.842                              43   -0.56    224 284 
 PTB  HZ  P       204511.888                              42    0.90    236 313 
 URMC HZ  P       204515.057                              44    1.38    260 218 
 URMC HN  S   1   204545.695                              45    0.08    260 218 
 PIRM HZ  P       204516.205                              41    0.54    264 265 
 PIRM HN  S       204546.595                              42   -2.53    264 265 
 PRA  HZ  P       204515.740                              42    0.71    267 235 
 PRA  HN  S   1   204547.256                              43   -0.73    267 235 
                                                                                

