 2022  1 1 22 4 12.3 L   7.373 -73.223115.3  SGC  3 0.0 1.6 SGC                1
 Action:ARG 23-01-27 11:28 OP:anls STATUS:               ID:20220101220412     I
 ARC                 2022 0101 2202 12   800                                   6
 STAT SP IPHASW D HRMM SECON CODA AMPLIT PERI AZIMU VELO AIN AR TRES W  DIS CAZ7
 RUS  HZ  P   1   22 438.143                             121   -1.21    164 175 
 RUS  HN  S   1   22 5 0.431                             121            164 175 
 PAM  EZ  P   1   22 430.138                             152   -0.01   57.9  94 
 PAM  EN  S   1   22 444.050                             152    0.01   57.9  94 
 PTB  HZ  P   1   22 438.768                             121    0.03    164 236 
 PTB  HN  S   1   22 459.320                             121   -0.02    164 236 
                                                                                

