 2022  1 1 2210  5.1 L   5.167 -76.289 79.0  SGC 29 1.4 2.7 SGC                1
 Action:ARG 23-01-27 11:28 OP:anls STATUS:               ID:20220101221005     I
 ARC                 2022 0101 2208 05   800                                   6
 STAT SP IPHASW D HRMM SECON CODA AMPLIT PERI AZIMU VELO AIN AR TRES W  DIS CAZ7
 QUBC HZ  P   1   221021.008                             132    0.15   69.4 338 
 QUBC HN  S   1   221031.271                             132   -2.07   69.4 338 
 CBOC HZ  P   1   221022.938                             125    0.86   83.5  21 
 CBOC HN  S   1   221035.356                             125   -0.15   83.5  21 
 PIRM HZ  P   1   221027.240                             114    0.86    115 104 
 PIRM HN  S   1   221043.324                             114    0.11    115 104 
 YOT  HZ  P   1   221027.558                             110    0.43    131 182 
 YOT  HN  S   1   221043.509                             110   -1.13    131 182 
 HEL  HZ  P   1 D 221028.448                             108    0.10    141  36 
 HEL  HN  S   1   221045.914                             108   -0.85    141  36 
 ORTC HZ  P   1   221034.478                             100    0.95    181 140 
 ORTC HN  S   1   221055.724                             100   -0.38    181 140 
 PRA  HZ  P   1   221039.528                              96    0.83    223 136 
 PRA  HN  S   1   2211 4.423                              96   -1.01    223 136 
 BELO HZ  P   1   221040.980                              97    0.23    241 167 
 BELO HN  S   1   2211 7.566                              97   -1.61    241 167 
 PTB  HZ  P   1   221041.798                              94   -0.32    254  53 
 PTB  HN  S       2211 8.934                              94   -2.66    254  53 
 URMC HZ  P       221048.338                              93    0.64    300 135 
 URMC HN  S       221119.547                              93   -2.06    300 135 
 PIZC HZ  P   1   221024.069                             112   -2.19    120 259 
 PIZC HN  S   1   221041.960                             112   -1.15    120 259 
 NOR  HZ  P   1   221031.638                             102    0.53    163  74 
 NOR  HN  S   1   221050.567                             102   -1.16    163  74 
 JAMC HZ  P   1   221037.819                              99   -0.37    221 191 
 JAMC HN  S       2211 2.057                             100   -2.57    221 191 
 ROSC BZ  P   1   221039.648                              96    0.56    220  99 
 SPBC HZ  P   1   221042.348                              94    0.04    251  77 
 SPBC HN  S       2211 7.846                              94   -3.98    251  77 
 MARO HZ  P       221044.200                              95    1.03    260 172 
 MARO HN  S       221111.799                              95   -1.74    260 172 
 CHI  HZ  P       221048.711                              93    1.44    288 101 
 CHI  HN  S   1   221119.301                              92   -1.51    288 101 
 APAC HZ  P       221050.092                              91    0.63    305 354 
 APAC HN  S       221122.313                              91   -2.66    305 354 
 ZAR  HZ  P   1   221047.708                              92   -0.36    303  31 
 ZAR  HN  S   1   221120.855                              93   -1.54    303  31 
 CLEJAHZ  P       221049.866                              92    1.20    307 126 
 CLEJAHN  S   1   221122.977                              92   -0.40    307 126 
 COBO HZ  P       221051.320                              92    0.89    315 182 
 COBO HN  S       221124.709                              92   -1.93    315 182 
 SOTO HZ  P   1   221053.674                              90    0.20    339 186 
 SOTO HN  S       221130.391                              90   -1.74    339 186 
 GARC HZ  P   1   221053.148                              90   -0.47    342 165 
 GARC HN  S       221129.522                              90   -2.80    342 165 
 BRJC HZ  P   1   221053.070                              92   -0.34    346  54 
 BRJC HN  S       221128.803                              92   -3.22    346  54 
 BBAC HZ  P   1   221055.158                              89   -1.54    365 197 
 BBAC HN  S       221133.883                              89   -4.15    365 197 
 RUS  HZ  P   1   221056.386                              92   -0.27    364  77 
 RUS  HN  S       221135.321                              91   -2.54    364  77 
 BAR2 HZ  P   1   221057.989                              91    0.11    378  65 
 BAR2 HN  S       221137.877                              91   -2.19    378  65 
 FLO2 HZ  P   1   2211 0.518                              87   -0.45    404 170 
 PAM  EZ  P   1   2211 8.040                              91   -0.29    464  58 
 PAM  EN  S       221156.097                              90   -2.81    464  58 
                                                                                

