 2022  1 1 2351  8.1 L   6.724 -73.180128.4  SGC 10 0.5 1.8 SGC                1
 Action:ARG 23-01-27 11:28 OP:anls STATUS:               ID:20220101235108     I
 ARC                 2022 0101 2349 08   800                                   6
 STAT SP IPHASW D HRMM SECON CODA AMPLIT PERI AZIMU VELO AIN AR TRES W  DIS CAZ7
 PAM  EZ  P   1   235129.748                             143   -0.21   86.6  37 
 PAM  EN  S       235146.102                             143   -1.22   86.6  37 
 RUS  HZ  P   1   235130.828                             141   -0.04   93.0 173 
 RUS  HN  S       235148.884                             141   -0.07   93.0 173 
 YPLC HZ  P   1   235137.350                             120   -0.61    172 149 
 CHI  HZ  P       235145.238                             110   -0.30    240 194 
 CHI  HN  S       235214.557                             111   -0.82    240 194 
 BAR2 HZ  P   1   235126.817                             171    0.56   14.7 180 
 BAR2 HN  S       235141.370                             171    0.69   14.7 180 
 PTB  HZ  P   1   235133.638                             127   -0.34    142 261 
 PTB  HN  S       235154.013                             127   -0.55    142 261 
 ZAR  HZ  P   1   235140.282                             117    0.08    203 294 
 ZAR  HN  S       2352 5.396                             117   -0.41    203 294 
 NOR  HZ  P       235143.515                             113    0.46    227 235 
 NOR  HN  S       235211.286                             113    0.36    227 235 
 PIRM HZ  P       235153.500                             106    0.07    308 229 
 PIRM HN  S       235228.688                             106   -0.91    308 229 
 PRA  HZ  P       2352 1.670                             101    0.09    384 209 
                                                                                

