 2022  1 1 2259  5.8 L   6.745 -73.197128.8  SGC  7 0.7 1.7 SGC                1
 Action:ARG 23-01-27 11:28 OP:anls STATUS:               ID:20220101225905     I
 ARC                 2022 0101 2257 05   800                                   6
 STAT SP IPHASW D HRMM SECON CODA AMPLIT PERI AZIMU VELO AIN AR TRES W  DIS CAZ7
 RUS  HZ  P   1   225927.818                             140   -0.27   95.6 172 
 RUS  HN  S       225946.288                             140   -0.08   95.6 172 
 PAM  EZ  P   1   225926.819                             143   -0.12   85.9  39 
 PAM  EN  S       225942.932                             143   -1.36   85.9  39 
 PTB  HZ  P   1   225930.235                             127   -0.61    140 260 
 PTB  HN  S       225950.940                             127   -0.41    140 260 
 BAR2 HZ  P   1   225923.778                             170    0.44   17.1 174 
 BAR2 HN  S       225938.730                             170    0.89   17.1 174 
 NOR  HZ  P       225940.717                             113    0.68    226 234 
 CHI  HZ  P       225942.188                             110   -0.56    242 194 
 CHI  HN  S       23 011.344                             111   -1.41    242 194 
 ROSC BZ  P       225943.880                             110    0.73    245 210 
                                                                                

