 2022  1 1 2358 37.8 L   5.783 -76.126 12.9  SGC  5 0.6 1.1 SGC                1
 Action:ARG 23-01-27 11:28 OP:anls STATUS:               ID:20220101235837     I
 ARC                 2022 0101 2356 37   800                                   6
 STAT SP IPHASW D HRMM SECON CODA AMPLIT PERI AZIMU VELO AIN AR TRES W  DIS CAZ7
 CBOC HZ  P   1 C 235841.728                             127    0.08   15.5  54 
 CBOC HN  S   1   235844.035                             127   -0.58   15.5  54 
 QUBC HZ  P   1   235846.078                              94   -0.21   43.7 264 
 QUBC HN  S   1   235852.155                              94   -0.72   43.7 264 
 HEL  HZ  P   1   235851.377                              78   -0.14   80.3  55 
 HEL  HN  S       2359 0.245                              77   -1.93   80.3  55 
 NOR  HZ  P       2359 1.671                              72    0.72    141  99 
 NOR  HN  S       235917.481                              72   -1.48    141  99 
 PIRM HZ  P       2359 0.196                              73   -0.71    134 136 
 PIRM HN  S       235916.375                              73   -2.52    134 136 
                                                                                

