 2022  1 1 2231 15.8 L   6.732 -73.150126.0  SGC 12 0.9 1.8 SGC                1
 Action:ARG 23-01-27 11:28 OP:anls STATUS:               ID:20220101223115     I
 ARC                 2022 0101 2229 15   800                                   6
 STAT SP IPHASW D HRMM SECON CODA AMPLIT PERI AZIMU VELO AIN AR TRES W  DIS CAZ7
 PAM  EZ  P   1   223137.588                             143    0.35   83.8  36 
 PAM  EN  S       223153.247                             143   -1.00   83.8  36 
 RUS  HZ  P   1   223138.858                             140    0.48   93.7 175 
 RUS  HN  S       223156.572                             140    0.25   93.7 175 
 CHI  HZ  P   1   223153.398                             110    0.05    242 195 
 CHI  HN  S       223222.705                             110   -0.55    242 195 
 BAR2 HZ  P       223131.115                             170   -2.59   16.0 192 
 BAR2 HN  S   1   223148.778                             170    0.86   16.0 192 
 BRJC HZ  P   1   223134.790                             147   -0.96   70.8 292 
 BRJC HN  S       223153.035                             147    1.44   70.8 292 
 PTB  HZ  P   1   223141.593                             125   -0.25    145 261 
 PTB  HN  S       2232 2.397                             125   -0.17    145 261 
 SPBC HZ  P   1   223143.474                             123   -0.14    157 220 
 SPBC HN  S       2232 5.856                             123    0.11    157 220 
 ZAR  HZ  P   1   223148.574                             116    0.52    206 294 
 ZAR  HN  S       223212.521                             116   -1.27    206 294 
 NOR  HZ  P   1   223150.648                             112   -0.36    230 235 
 NOR  HN  S       223218.914                             112   -0.17    230 235 
 HEL  HZ  P       223156.944                             109    1.32    269 257 
 HEL  HN  S       223228.037                             109    0.65    269 257 
 PIRM HZ  P       2232 1.607                             105    0.19    311 229 
 PIRM HN  S       223236.957                             105   -0.85    311 229 
 PRA  HZ  P       223210.311                             101    0.80    386 209 
 PRA  HN  S       223251.147                             101   -1.30    386 209 
                                                                                

