 2022  1 1 2324 12.1 L   6.534 -73.314 22.5  SGC  4 0.5 1.3 SGC                1
 Action:ARG 23-01-27 11:28 OP:anls STATUS:               ID:20220101232412     I
 ARC                 2022 0101 2322 12   800                                   6
 STAT SP IPHASW D HRMM SECON CODA AMPLIT PERI AZIMU VELO AIN AR TRES W  DIS CAZ7
 BAR2 HZ  P   1   232417.548                             139    0.01   15.9  66 
 BAR2 HN  S   1   232421.780                             139    0.01   15.9  66 
 BRJC HZ  P   1   232424.440                              94   -0.10   68.1 315 
 BRJC HN  S       232432.809                              94   -1.42   68.1 315 
 RUS  HZ  P   1 D 232426.478                              94   -0.05   75.8 160 
 RUS  HN  S       232436.518                              94   -1.25   75.8 160 
 PTB  HZ  P       232434.337                              82    1.19    126 270 
 PTB  HN  S       232449.788                              82    0.24    126 270 
                                                                                

