 2022  1 1 2251 58.9 L   5.356 -72.665 32.6  SGC  5 0.5 1.6 SGC                1
 Action:ARG 23-01-27 11:28 OP:anls STATUS:               ID:20220101225158     I
 ARC                 2022 0101 2249 58   800                                   6
 STAT SP IPHASW D HRMM SECON CODA AMPLIT PERI AZIMU VELO AIN AR TRES W  DIS CAZ7
 RUS  HZ  P   1   225212.278                              91    0.33   75.3 322 
 RUS  HN  S   1   225221.570                              91   -0.50   75.3 322 
 PTGC HZ  P   1   225220.158                              90    0.61    140 155 
 PTGC HN  S   1   225234.943                              90   -0.67    140 155 
 CHI  HZ  P   1   225221.118                              90    0.75    143 236 
 CHI  HN  S   1   225236.640                              90   -0.43    143 236 
 VIL  EZ  P   1   225226.854                              90    2.41    178 220 
 VIL  EN  S   1   225247.436                              90    3.13    178 220 
 YPLC HZ  P   1   2252 6.300                             122    0.13   31.9  82 
 YPLC HN  S   1   225211.708                             122   -0.09   31.9  82 
                                                                                

