 2022  1 1 2156 38.4 L   6.160 -73.707102.5  SGC 11 0.6 1.6 SGC                1
 Action:ARG 23-01-27 11:28 OP:anls STATUS:               ID:20220101215638     I
 ARC                 2022 0101 2154 38   800                                   6
 STAT SP IPHASW D HRMM SECON CODA AMPLIT PERI AZIMU VELO AIN AR TRES W  DIS CAZ7
 RUS  HZ  P   1   215655.258                             141   -0.49   75.1 113 
 RUS  HN  S   1   2157 7.565                             141   -1.70   75.1 113 
 PTB  HZ  P   1   215655.888                             134   -0.72   93.0 297 
 PTB  HN  S   1   2157 9.974                             134   -0.83   93.0 297 
 NOR  HZ  P   1   2157 1.698                             120    0.05    144 243 
 NOR  HN  S   1   215720.496                             120    0.73    144 243 
 CHI  HZ  P   1   2157 4.398                             116   -0.28    169 181 
 CHI  HN  S   1   215725.946                             116    0.79    169 181 
 BAR2 HZ  P   1   215655.498                             141    0.06   75.2  51 
 BAR2 HN  S   1   2157 9.276                             141    0.57   75.2  51 
 SPBC HZ  P   1   215654.892                             143    0.08   69.2 216 
 SPBC HN  S   1   2157 7.800                             143    0.22   69.2 216 
 YPLC HZ  P   1   2157 3.692                             115   -0.63    169 120 
 YPLC HN  S   1   215724.427                             115   -0.09    169 120 
 ZAR  HZ  P   1   2157 6.998                             112   -0.04    194 319 
 ZAR  HN  S   1   215729.695                             112    0.33    194 319 
 HEL  HZ  P   1   2157 8.502                             111    0.27    201 271 
 HEL  HN  S   1   215732.372                             111    0.90    201 271 
 PIRM HZ  P   1   215711.614                             108    0.70    223 231 
 PIRM HN  S   1   215736.904                             108    0.65    223 231 
 PRA  HZ  P   1   215719.396                             102    0.09    300 206 
 PRA  HN  S   1   215753.496                             102    2.30    300 206 
                                                                                

