 2022  1 1 2342 31.7 L   6.767 -73.168142.3  SGC 29 1.3 2.3 SGC                1
 Action:ARG 23-01-27 11:28 OP:anls STATUS:               ID:20220101234231     I
 ARC                 2022 0101 2340 31   800                                   6
 STAT SP IPHASW D HRMM SECON CODA AMPLIT PERI AZIMU VELO AIN AR TRES W  DIS CAZ7
 PAM  EZ  P   1   234255.388                             147    0.70   82.0  39 
 PAM  EN  S   1   234312.014                             147   -0.91   82.0  39 
 RUS  HZ  P   1   234256.328                             142    0.15   97.7 174 
 RUS  HN  S   1   234314.732                             143   -0.89   97.7 174 
 PTB  HZ  P   1   234258.678                             130   -0.20    144 259 
 PTB  HN  S   1   234319.997                             130   -0.51    144 259 
 SPBC HZ  P   1   2343 1.318                             127    0.45    159 218 
 SPBC HN  S   1   234322.878                             127   -1.20    159 218 
 ZAR  HZ  P   1   2343 4.979                             120    0.41    202 293 
 ZAR  HN  S   1   234329.793                             120   -0.99    202 293 
 NOR  HZ  P   1   2343 8.338                             116    0.50    230 234 
 NOR  HN  S   1   234335.700                             116   -0.93    230 234 
 CHI  HZ  P   1   234310.579                             113    0.19    245 194 
 CHI  HN  S   1   234339.789                             113   -1.40    245 194 
 PTGC HZ  P   1   234315.608                             108   -0.90    307 158 
 PTGC HN  S       234348.615                             108   -3.76    307 158 
 BAR2 HZ  P   1   234252.368                             170    0.70   19.6 184 
 BAR2 HN  S   1   2343 7.351                             170   -0.16   19.6 184 
 PDSC HZ  P   1   234252.185                             166    0.54   27.5  24 
 PDSC HN  S   1   2343 7.206                             166   -0.26   27.5  24 
 BRJC HZ  P   1   234253.900                             152    0.70   67.6 289 
 BRJC HN  S   1   234310.936                             152    0.67   67.6 289 
 TAM  HZ  P   1 D 2343 0.818                             126   -0.02    156 103 
 TAM  HN  S   1   234322.729                             126   -1.32    156 103 
 YPLC HZ  P   1   2343 2.720                             123   -0.13    175 150 
 YPLC HN  S   1   234326.633                             123   -1.05    175 150 
 ROSC BZ  P       234312.874                             113    2.02    249 210 
 ROSC BN  S   1   234342.176                             113    0.12    249 210 
 HEL  HZ  P       234313.458                             112    1.31    268 256 
 HEL  HN  S   1   234343.607                             112   -0.80    268 256 
 CVER HZ  P   1   234313.193                             111    0.21    269 201 
 CVER HN  S       234344.217                             111   -1.68    269 201 
 DRL03HZ  P   1   234314.126                             110   -0.26    293 353 
 DRL03HN  S       234345.689                             110   -2.84    293 353 
 VIL  EZ  P   1   234316.226                             108    0.49    300 191 
 VIL  EN  S   1   234350.487                             109   -0.44    300 191 
 PIRM HZ  P       234320.181                             108    2.12    312 228 
 PIRM HN  S   1   234353.788                             108   -1.24    312 228 
 DRL04HZ  P   1   234317.432                             108    0.30    318 352 
 DRL04HN  S   1   234352.620                             108   -0.88    318 352 
 DRL02HZ  P   1   234317.712                             107   -0.96    330 358 
 DRL02HN  S       234351.611                             107   -4.65    330 358 
 DRL01HZ  P   1   234318.911                             107    0.07    331 350 
 DRL01HN  S   1   234355.419                             107   -1.17    331 350 
 CBOC HZ  P   1   234319.806                             107    0.27    330 252 
 CBOC HN  S       234356.136                             107   -1.58    330 252 
 PRA  HZ  P   1   234326.418                             103    0.25    389 209 
 PRA  HN  S       2344 8.013                             103   -1.68    389 209 
 PGA6 HZ  P   1   234324.574                             103   -1.12    390 148 
 PGA6 HN  S       2344 3.850                             103   -5.10    390 148 
 ORTC HZ  P   1   234325.539                             103   -1.21    392 215 
 ORTC HN  S       2344 9.079                             103   -1.66    392 215 
 APAC HZ  P   1   234327.113                             103   -0.89    396 288 
 APAC HN  S       2344 9.613                             103   -3.52    396 288 
 URMC HZ  P       234329.308                             103    0.80    413 198 
 URMC HN  S   1   234412.644                             103   -1.31    413 198 
 CRJC HZ  P       234332.683                             101   -2.68    473   3 
 CRJC HN  S       234419.930                             101   -6.46    473   3 
                                                                                

