 2022  1 1 2224 39.9 L   6.092 -72.843  0.0  SGC  3 1.7 1.4 SGC                1
 Action:ARG 23-01-27 11:28 OP:anls STATUS:               ID:20220101222439     I
 ARC                 2022 0101 2222 39   800                                   6
 STAT SP IPHASW D HRMM SECON CODA AMPLIT PERI AZIMU VELO AIN AR TRES W  DIS CAZ7
 RUS  HZ  P   1   222444.458                              47   -1.46   34.5 230 
 RUS  HN  S   1   222452.688                              47    1.38   34.5 230 
 PTB  HZ  P   1   2225 9.907                              37    1.80    185 285 
 PTB  HN  S   1   222530.387                              37   -0.41    185 285 
 CHI  HZ  P   1   2225 6.698                              37   -2.44    189 211 
 CHI  HN  S   1   222534.297                              37    1.66    189 211 
                                                                                

